_id,hospital_id,npi,name,specialty,specialty_code,address,city,state,zip,phone,coordinates.lat,coordinates.lng
691efe51a095716360cd18cb,ab65c4a1-643b-4fa3-add1-430ffe23c3b2,1538141536,WEILL CORNELL UNIVERSITY MEDICAL COLLEGE,Women's Hospital,282NW0100X,428 E 72ND ST,NEW YORK,NY,10021,2127464900,40.7668985,-73.9547935
691efe51a095716360cd18cc,c4b738e3-8d58-4184-8287-c796f88b9f7e,1215911946,NEW YORK GRACIE SQUARE HOSPITAL INC,Psychiatric Hospital,283Q00000X,420 E 76TH ST,NEW YORK,NY,10021,2124345300,40.7697411,-73.9530951
691efe51a095716360cd18cd,c5138524-80c2-48b3-9915-8f9625527882,1033186093,MOUNT SINAI HOSPITAL,Psychiatric Hospital,283Q00000X,1 GUSTAVE L LEVY PL BOX 6000,NEW YORK,NY,10029,2122562904,40.7901411,-73.95381929999999
691efe51a095716360cd18ce,97a39b4d-5d4c-41bb-bd64-20065d73c7fb,1669440327,MOUNT SINAI HOSPITAL,Rehabilitation Hospital,283X00000X,1 GUSTAVE L LEVY PL BOX 6000,NEW YORK,NY,10029,2122562904,40.7901411,-73.95381929999999
691efe51a095716360cd18cf,4d4d44c6-fe51-4bf7-abd1-d1adc48bd2ba,1083663124,NEW YORK VAMC,General Acute Care Hospital,282N00000X,423 E 23RD ST,NEW YORK,NY,10010,7172776565,40.7370457,-73.9768461
691efe51a095716360cd18d0,f4cb3a10-0480-46c9-8513-7eba88d4ea16,1003863168,COLUMBIA PRESBYTERIAN MEDICAL CENTER,General Acute Care Hospital,282N00000X,622 W 168TH ST ROOM PH1271,NEW YORK,NY,10032,2123054920,40.8410959,-73.9405652
691efe51a095716360cd18d1,144ec87c-05a4-440b-83d4-7e154bf4f963,1275570327,MOUNT SINAI SCHOOL OF MEDICINE,Psychiatric Hospital,283Q00000X,1 GUSTAVE L LEVY PL BOX 1230,NEW YORK,NY,10029,2126598751,40.7901411,-73.95381929999999
691efe51a095716360cd18d2,c70d0ed1-7856-43eb-bf14-3560d272a5b2,1598703019,NEW YORK SOCIETY FOR THE RELIEF OF RUPTURED & CRIPPLED MAINTAINING,General Acute Care Hospital,282N00000X,535 E 70TH ST,NEW YORK,NY,10021,2126061398,40.765048,-73.9529124
691efe51a095716360cd18d3,e62903af-36b3-4e99-b811-9b38def30eee,1952346223,SAINT VINCENT CATHOLIC MEDICAL CENTER,General Acute Care Hospital,282N00000X,153 W 11TH ST,NEW YORK,NY,10011,2126047000,40.7364656,-74.00052529999999
691efe51a095716360cd18d4,400632cd-febf-4516-824c-3af4b8887054,1316975519,SAINT VINCENT CATHOLIC MEDICAL CENTER,Psychiatric Hospital Unit,273R00000X,153 W 11TH ST,NEW YORK,NY,10011,2123564419,40.7364656,-74.00052529999999
691efe51a095716360cd18d5,a3367dbc-a10f-4f92-ab33-fb776e044018,1477581015,SAINT VINCENT CATHOLIC MEDICAL CENTER,Rehabilitation Hospital Unit,273Y00000X,153 W 11TH ST,NEW YORK,NY,10011,2123564419,40.7364656,-74.00052529999999
691efe51a095716360cd18d6,5cd99f7d-a9d3-48a7-acf5-d5ca2ca3f2af,1164453312,SLR PSYCHIATRIC ASSOCIATES,General Acute Care Hospital,282N00000X,1090 AMSTERDAM AVE SUITE 16C,NEW YORK,NY,10025,2125232965,40.8054543,-73.96247869999999
691efe51a095716360cd18d7,7eea6baf-2b7a-46ff-abe4-f1b699408ca0,1952332801,THE NEW YORK AND PRESBYTERIAN HOSPITAL,General Acute Care Hospital,282N00000X,525 E 68TH ST,NEW YORK,NY,10065,9143358803,40.7648658,-73.9539836
691efe51a095716360cd18d8,12f66bdb-4797-4b57-8b19-0aad60a39f80,1356375505,"PRIVATE COVERAGE HOSPITALIST GROUP OF NY, PLLC",Hospitalist Physician,208M00000X,227 E 19TH ST,NEW YORK,NY,10003,2126866010,40.7361847,-73.98355389999999
691efe51a095716360cd18d9,8cce0f84-e43d-4557-8d41-494ba25d3a20,1770502635,THE NEW YORK AND PRESBYTERIAN HOSPITAL,Psychiatric Hospital,283Q00000X,525 E 68TH ST,NEW YORK,NY,10021,2127465454,40.7648658,-73.9539836
691efe51a095716360cd18da,5f00cf44-f8d4-4fa8-9397-07af627e8b9c,1063435709,MT. SINAI SCHOOL OF MEDICINE,General Acute Care Hospital,282N00000X,1 GUSTAVE L LEVY PLACE BOX 1048,NEW YORK,NY,10029,2122419065,40.7901411,-73.95381929999999
691efe51a095716360cd18db,1dcb77c5-1656-4d73-91a9-a5a642ec1ec4,1033225982,MT. SINAI SCHOOL OF MEDICINE,General Acute Care Hospital,282N00000X,1 GUSTAVE L LEVY PLACE BOX 1048,NEW YORK,NY,10029,2122413050,40.7901411,-73.95381929999999
691efe51a095716360cd18dc,7ebd0a65-4515-4548-8864-945672bb6dfa,1124136403,ST. VINCENT'S MIDTOWN HOSPITAL,General Acute Care Hospital,282N00000X,415 W 51ST ST,NEW YORK,NY,10019,2124598000,40.7646993,-73.98935279999999
691efe51a095716360cd18dd,5c1ee7dd-4b68-4357-a6d8-3320274e6607,1073621314,MT. SINAI SCHOOL OF MEDICINE,General Acute Care Hospital,282N00000X,1 GUSTAVE L LEVY PLACE,NEW YORK,NY,10029,2122413050,40.7901411,-73.95381929999999
691efe51a095716360cd18de,30551625-0b70-4dc2-bd6c-828f58e6539c,1063520302,MT. SINAI SCHOOL OF MEDICINE,General Acute Care Hospital,282N00000X,1 GUSTAVE L LEVY PLACE,NEW YORK,NY,10029,2122413050,40.7901411,-73.95381929999999
691efe51a095716360cd18df,8b0ab840-0c79-4af3-89ef-c35b3e6735cc,1912018466,"OUTPATIENT MENTAL HEALTH SERVICES, NORTH GENERAL HOSPITAL",Psychiatric Hospital Unit,273R00000X,1879 MADISON AVE 4TH FLOOR,NEW YORK,NY,10035,2124234400,40.8032081,-73.9418144
691efe51a095716360cd18e0,5d96729c-647b-402f-9896-6c1df6669dbb,1053413989,NEW YORK DOWNTOWN HOSPITAL,General Acute Care Hospital,282N00000X,170 WILLIAM ST,NEW YORK,NY,10038,9172862580,40.7101668,-74.0048564
691efe51a095716360cd18e1,621810c2-e081-4755-a4c3-dbabdf5b2ab1,1033211446,MT. SINAI SCHOOL OF MEDICINE,General Acute Care Hospital,282N00000X,1 GUSTAVE L LEVY PLACE,NEW YORK,NY,10029,2122413050,40.7901411,-73.95381929999999
691efe51a095716360cd18e2,8092d8a8-d4d9-47d5-8e34-1450703a6844,1851493266,MT. SINAI SCHOOL OF MEDICINE,General Acute Care Hospital,282N00000X,1 GUSTAVE L LEVY PLACE,NEW YORK,NY,10029,2122413050,40.7901411,-73.95381929999999
691efe51a095716360cd18e3,16b2f84d-ef41-4df0-8d13-f13d2e9c42ed,1740382159,MT. SINAI SCHOOL OF MEDICINE,General Acute Care Hospital,282N00000X,1 GUSTAVE L LEVY PLACE BOX 1048,NEW YORK,NY,10029,2122413050,40.7901411,-73.95381929999999
691efe51a095716360cd18e4,43b599f6-d537-4189-b9ff-527fec4de5b9,1376646836,COLUMBIA RADIOLOGY AT LAWRENCE,General Acute Care Hospital,282N00000X,622 W 168TH ST,NEW YORK,NY,10032,2123059335,40.8410959,-73.9405652
691efe51a095716360cd18e5,1d40c70d-9a5a-4241-870f-8ed50a3528d0,1609970011,THE NEW YORK AND PRESBYTERIAN HOSPITAL,Psychiatric Hospital,283Q00000X,622 W 168TH ST,NEW YORK,NY,10032,2123052500,40.8410959,-73.9405652
691efe51a095716360cd18e6,1b350d94-9a80-48f4-bec5-2f3d630960dc,1518061928,THE NEW YORK AND PRESBYTERIAN HOSPITAL,Rehabilitation Hospital,283X00000X,622 W 168TH ST,NEW YORK,NY,10032,2123052500,40.8410959,-73.9405652
691efe51a095716360cd18e7,bca025f0-b29c-4f17-bba3-24124588a369,1225132632,THE NEW YORK AND PRESBYTERIAN HOSPITAL,General Acute Care Hospital,282N00000X,622 W 168TH ST,NEW YORK,NY,10032,2123052500,40.8410959,-73.9405652
691efe51a095716360cd18e8,01cb5472-acc9-48df-894e-3bd4c4901d35,1669578324,NYU LANGONE HOSPITALS,Rehabilitation Hospital Unit,273Y00000X,301 E 17TH ST,NEW YORK,NY,10003,2122631481,40.7343532,-73.9829855
691efe51a095716360cd18e9,8429eaa6-d6b4-4e6c-b451-bfe49017c71e,1073610473,METROPOLITAN HOSPITAL CENTER,General Acute Care Hospital,282N00000X,1901 1ST AVE ROOM 4B5,NEW YORK,NY,10029,2124236796,40.7849111,-73.94417419999999
691efe51a095716360cd18ea,be2cf38b-74e9-4954-8d7f-548260a41bb6,1831297373,MT. SINAI SCHOOL OF MEDICINE,General Acute Care Hospital,282N00000X,5 E 98TH ST FL 5,NEW YORK,NY,10029,2122418234,40.7890717,-73.9538601
691efe51a095716360cd18eb,cee0b1a8-516d-4277-abf8-faa66f0e2156,1922107697,MANHATTAN VA HOSPITAL,Military Hospital,286500000X,423 E 23RD ST,NEW YORK,NY,10010,2126867500,40.7370457,-73.9768461
691efe51a095716360cd18ec,e204d6f8-30b5-4cc9-8fb9-547c0be6e60d,1275632895,NYU LANGONE HOSPITALS,General Acute Care Hospital,282N00000X,301 E 17TH ST,NEW YORK,NY,10003,2122631481,40.7343532,-73.9829855
691efe51a095716360cd18ed,600fc95c-4dff-443f-a949-9a427e03d055,1265526610,TERENCE CARDINAL COOKE HEALTH CARE CENTER,General Acute Care Hospital,282N00000X,1249 5TH AVENUE,NEW YORK,NY,10022,6466334774,40.793576,-73.9505396
691efe51a095716360cd18ee,472978c2-4bf5-40dc-aadb-26371dac719d,1609962711,NEW YORK HARBOR HEALTHCARE SYSTEM,Psychiatric Hospital,283Q00000X,423 E 23RD ST,NEW YORK,NY,10010,2126867500,40.7370457,-73.9768461
691efe51a095716360cd18ef,4502cc47-2e96-460c-bab1-72da7b0275ae,1760579452,TERENCE CARDINAL COOKE HEALTH CARE CENTER,General Acute Care Hospital,282N00000X,1249 5TH AVE,NEW YORK,NY,10029,6466334774,40.793576,-73.9505396
691efe51a095716360cd18f0,54b8fbbe-9878-4dae-84ad-4bf1e4da29ed,1275622276,MOUNT SINAI MEDICAL CENTER,General Acute Care Hospital,282N00000X,1 GUSTAVE L LEVY PL BOX 1495,NEW YORK,NY,10029,2122418095,40.7901411,-73.95381929999999
691efe51a095716360cd18f1,1fbacb24-402a-4772-8653-db1c4a5c889c,1346321171,CABRINI MEDICAL CENTER - PSYCH,Psychiatric Hospital Unit,273R00000X,227 E 19TH ST,NEW YORK,NY,10003,2129956156,40.7361847,-73.98355389999999
691efe51a095716360cd18f2,639735ec-d08b-4d48-941d-954560eae1e2,1063593887,CABRINI MEDICAL CENTER,General Acute Care Hospital,282N00000X,227 E 19TH ST,NEW YORK,NY,10003,2129956156,40.7361847,-73.98355389999999
691efe51a095716360cd18f3,d4b8a8a7-13e3-4734-add1-c03866382b19,1437230034,NYU LANGONE HOSPITALS,Psychiatric Hospital Unit,273R00000X,160 E 34TH ST,NEW YORK,NY,10016,2122631481,40.7457643,-73.9787979
691efe51a095716360cd18f4,881f88f5-0365-4a1a-a744-265702aeaad2,1982786950,CABRINI MEDICAL CENTER,Rehabilitation Hospital Unit,273Y00000X,227 E 19TH ST,NEW YORK,NY,10003,2129956156,40.7361847,-73.98355389999999
691efe51a095716360cd18f5,f8485e8e-5ff5-4539-90cf-d94197ab30b1,1932283876,MANHATTAN PSYCHIATRIC CENTER,Psychiatric Hospital,283Q00000X,600 E 125TH ST,NEW YORK,NY,10035,6466726004,40.7891393,-73.9298302
691efe51a095716360cd18f6,1b52fdb2-57aa-409e-8442-feddbf17e4c8,1326124306,WOODHULL MEDICAL CENTER,General Acute Care Hospital,282N00000X,50 W34TH ST 16C1,NEW YORK,NY,10001,6468987188,40.749468,-73.98751290000001
691efe51a095716360cd18f7,0daf4b58-5d1d-466b-8217-dacfe97a26ee,1467539494,HOSPITAL FOR SPECIAL SURGERY,General Acute Care Hospital,282N00000X,535 E 70TH ST,NEW YORK,NY,10021,2126061151,40.765048,-73.9529124
691efe51a095716360cd18f8,7cbcf763-b892-4885-a648-caf153b62bde,1528147188,SAINT VINCENT'S CATHOLIC MEDICAL CENTER,Chronic Disease Hospital,281P00000X,168 CANAL ST FL 4,NEW YORK,NY,10013,2124315501,40.7163285,-73.99734389999999
691efe51a095716360cd18f9,f23b4f63-15fc-4341-b1c2-194b5332918e,1477625846,PROFFESSIONAL HEALTHCARE& CHIROPRACTIC SERVICES PC,Rehabilitation Hospital Unit,273Y00000X,641 LEXINGTON AVE FL 14,NEW YORK,NY,10022,8663354040,40.7589281,-73.9696721
691efe51a095716360cd18fa,0eea814c-5b14-43f1-a5bc-3ece6e3a0f53,1649346222,NEW YORK CITY HEALTH AND HOSPITALS CORPORATION,Critical Access Hospital,282NC0060X,HARLEM HOSPITAL CENTER C/O OUTPATIENT PHARMACY 46 WEST 137TH STREET,NEW YORK,NY,10037,2129391761,40.8148163,-73.9391972
691efe51a095716360cd18fb,0ef3ee08-a629-42e4-aec5-6d30594659b4,1265509251,METROPOLITAN HOSPITAL,Psychiatric Hospital Unit,273R00000X,METROPOLITAN HOSPITAL 1901 FIRST AVE,NEW YORK,NY,10029,2124237609,40.7850202,-73.9448902
691efe51a095716360cd18fc,0a0dadf2-dc88-4b7a-b75c-fa741720a44e,1982772307,LENOX HILL HOSPITAL,General Acute Care Hospital,282N00000X,215 E 95TH ST,NEW YORK,NY,10128,2124233146,40.7844464,-73.9485741
691efe51a095716360cd18fd,09913f5b-092c-4082-8e78-a1c4366a32bc,1215096110,MULTIPLE SCLEROSIS CARE CENTER,Rehabilitation Hospital,283X00000X,301 E 17TH ST,NEW YORK,NY,10003,2125986305,40.7343532,-73.9829855
691efe51a095716360cd18fe,9cd23f88-8908-448e-90a8-2383d0e12f09,1902965858,THE MOUNT SINAI REHABILITATION CENTER,Rehabilitation Hospital,283X00000X,205 E 95TH ST APT 30B,NEW YORK,NY,10128,5182251501,40.78461859999999,-73.9490464
691efe51a095716360cd18ff,e079f041-2db5-4b70-b3b6-f947c1c81525,1164582110,ST LUKES ROOSEVELT HOSPITAL CENTER,Psychiatric Hospital,283Q00000X,411 W 114TH ST,NEW YORK,NY,10025,2125234108,40.8052906,-73.9609582
691efe51a095716360cd1900,94edc33e-6ee9-4a54-9073-24cdcccd008d,1588725774,ST. LUKE'S HOSPITAL,Critical Access Hospital,282NC0060X,ST LUKE'S HOSPITAL 1111 AMSTERDAM AVE,NEW YORK,NY,10025,2125235662,40.8058767,-73.9614271
691efe51a095716360cd1901,c2b06c0f-9328-4d61-93dd-c27674be7aa8,1922169689,MANHATTAN EYE EAR AND THROAT HOSPITAL,General Acute Care Hospital,282N00000X,210 E 64TH ST,NEW YORK,NY,10021,2124344355,40.7640723,-73.9633151
691efe51a095716360cd1902,8a919a89-dfcb-4ff4-97f9-41c09ed7842e,1982766150,HARLEM HOSPITAL CENTER,Long Term Care Hospital,282E00000X,506 MALCOLM X BLVD 12TH FLOOR. DEP. OF SURGERY,NEW YORK,NY,10037,2129398063,40.8141451,-73.9404473
691efe51a095716360cd1903,45205561-5499-4a67-bc7b-f79421ae8cf1,1689736449,BELLEVUE HOSPITAL CENTER,General Acute Care Hospital,282N00000X,462 1ST AVE,NEW YORK,NY,10016,2122636425,40.7388717,-73.9752894
691efe51a095716360cd1904,b9bd4284-2ac6-474e-92a8-17d87f454784,1710040787,NYU HOSPITAL FOR JIONT DISEASES,Medicare Defined Swing Bed Hospital Unit,275N00000X,301 E 17TH ST,NEW YORK,NY,10003,2125986415,40.7343532,-73.9829855
691efe51a095716360cd1905,c77591fc-8ae8-43fe-91e6-63681e901199,1477616571,LENOX HILL HOSPITAL,Psychiatric Hospital Unit,273R00000X,100 E 77TH ST,NEW YORK,NY,10075,2124344355,40.7737506,-73.96082410000001
691efe51a095716360cd1906,749e8e3e-0a89-42dd-b82e-038ffaef0948,1083778831,NEW YORK DOWNTOWN HOSPITAL,General Acute Care Hospital,282N00000X,170 WILLIAM ST 3RD FL,NEW YORK,NY,10038,2123125000,40.7101668,-74.0048564
691efe51a095716360cd1907,87f81d3c-2191-44c4-94ed-78847c0dbd41,1194889956,NORTH GENERAL HOSPITAL,General Acute Care Hospital,282N00000X,1879 MADISON AVE,NEW YORK,NY,10035,2124234843,40.8032081,-73.9418144
691efe51a095716360cd1908,d3081aeb-7677-462b-93ed-cb81ed29e41c,1568526739,NYS OFFICE OF MENTAL HEALTH,Psychiatric Hospital,283Q00000X,1051 RIVERSIDE DR,NEW YORK,NY,10032,2125435000,40.8426267,-73.94455549999999
691efe51a095716360cd1909,67c06cae-1ac6-479d-9b1d-c11c01256f3a,1902961816,NEW YORK DOWNTOWN HOSPITAL,General Acute Care Hospital,282N00000X,170 WILLIAM ST,NEW YORK,NY,10038,9172862580,40.7101668,-74.0048564
691efe51a095716360cd190a,589bc4bc-d63c-4e59-b5a6-b3883e572632,1639234156,NYS OFFICE OF MENTAL HEALTH,Psychiatric Hospital,283Q00000X,WARDS ISLAND,NEW YORK,NY,10035,2123690500,40.794065,-73.9271644
691efe51a095716360cd190b,1560ed7b-3601-4d9e-9db7-b5504c56dcca,1639234198,BELLEVUE HOSPITAL CENTER,General Acute Care Hospital,282N00000X,462 1ST AVE,NEW YORK,NY,10016,2122636425,40.7388717,-73.9752894
691efe51a095716360cd190c,a278cdf0-1698-43e0-984e-23814c40a3a2,1932256161,NYS OFFICE OF MENTAL HEALTH,Psychiatric Hospital,283Q00000X,WARDS ISLAND,NEW YORK,NY,10035,2124279003,40.794065,-73.9271644
691efe51a095716360cd190d,1421eb05-524d-4e77-a208-be3b1ab73005,1275680860,BELLEVUE HOSPITAL CENTER,Psychiatric Hospital,283Q00000X,104 E 40TH ST SUITE 602,NEW YORK,NY,10016,2126819790,40.750357,-73.978038
691efe51a095716360cd190e,de2c174d-a176-4bd5-8be6-4687cf3660de,1205983657,RENAISSANCE HEAITH CARE,General Acute Care Hospital,282N00000X,215 W 125TH ST 215 W 125 ST. N.Y N.Y. 10027,NEW YORK,NY,10027,2129326588,40.8096896,-73.94888639999999
691efe51a095716360cd190f,21e88870-f565-4eb5-a542-2f5b669e9ca7,1245388297,METROPOLITAN HOSPITAL,Chronic Disease Hospital,281P00000X,1901 1ST AVE DEPT OF PSYCHIATRY,NEW YORK,NY,10029,2124237992,40.7852328,-73.94502899999999
691efe51a095716360cd1910,5c4c4753-916f-4a8e-8baa-2b8a5d345c25,1912057498,SAINT VINCENT'S COMPREHESIVE CANCER CENTER,Special Hospital,284300000X,SAINT VINCEN'T COMPREHENSIVE BREAST CENTER 325 W. 15TH STREET,NEW YORK,NY,10011,2126046006,40.74121359999999,-74.003478
691efe51a095716360cd1911,1b2ab903-ad13-488f-b8dd-026af3c131cc,1639221955,HARLEM HOSPITAL CENTER,General Acute Care Hospital,282N00000X,506 MALCOLM X BLVD,NEW YORK,NY,10037,2129393354,40.8141451,-73.9404473
691efe51a095716360cd1912,7ef73808-0c6a-4099-b993-0a0ce134c995,1982756227,HARLEM HOSPITAL CENTER,Psychiatric Hospital,283Q00000X,1751 2ND AVE 28T,NEW YORK,NY,10128,2125346742,40.7814454,-73.9493801
691efe51a095716360cd1913,0822778c-d7a6-41e9-8619-4bf2c36e9a21,1518010974,HARLEM HOSPITAL CENTER,General Acute Care Hospital,282N00000X,506 MALCOLM X BLVD,NEW YORK,NY,10037,2129393388,40.8141451,-73.9404473
691efe51a095716360cd1914,1451f134-3939-4f93-8235-a0500de663da,1992858351,VINCENT COBBLAH MDPC,General Acute Care Hospital,282N00000X,16TH STREET AND FIRST AVE BETH ISRAEL MEDICAL CENTER,NEW YORK,NY,10003,2124202385,40.7331881,-73.9820909
691efe51a095716360cd1915,23b06152-5f7f-4f27-a07a-32dd61c49345,1487707402,NYU MEDICAL CENTER,General Acute Care Hospital,282N00000X,530 1ST AVE SUITE 8U,NEW YORK,NY,10016,2122637182,40.7420311,-73.9743163
691efe51a095716360cd1916,3f754ba7-37a0-42b8-8ad1-85d537b1a8a5,1023162948,HARLEM HOSPITAL,General Acute Care Hospital,282N00000X,"506 MALCOLM X BLVD WOMEN PAVILION BLG., RM 364",NEW YORK,NY,10037,2129393307,40.8141451,-73.9404473
691efe51a095716360cd1917,eeb02059-716e-44bd-a2a3-c9f3f365df0b,1326192725,LORI ARKIN,Critical Access Hospital,282NC0060X,100 E 77TH ST NCCU,NEW YORK,NY,10021,2124342565,40.7737506,-73.96082410000001
691efe51a095716360cd1918,355563a2-e534-4b30-b9fc-014eaf3e26c9,1831244102,CABRINI MEDICAL CENTER,General Acute Care Hospital,282N00000X,227 E 19TH ST,NEW YORK,NY,10003,2129793200,40.7361847,-73.98355389999999
691efe51a095716360cd1919,10a20582-0bc6-454d-a0fe-22dc75a7d8cf,1649325119,ROCKEFELLER UNIVERSITY HOSPITAL,Special Hospital,284300000X,1230 YORK AVE HOSPITAL 322,NEW YORK,NY,10021,2123277441,40.7631824,-73.9563226
691efe51a095716360cd191a,3d1c372a-5f9c-4889-b956-0c89e9b2972f,1639225543,LENOX HILL HOSPITAL,General Acute Care Hospital,282N00000X,100 E 77TH ST,NEW YORK,NY,10021,2124342842,40.7737506,-73.96082410000001
691efe51a095716360cd191b,8a37e230-db5d-4e76-ba56-5fdcdac45e34,1245386630,LENOX HILL HOSPITAL,General Acute Care Hospital,282N00000X,100 E 77TH ST NCCU,NEW YORK,NY,10021,2124342842,40.7737506,-73.96082410000001
691efe51a095716360cd191c,0cd5c69b-5039-4d7a-a244-3fb7c720762c,1316093701,LENOX HILL HOSPITAL,General Acute Care Hospital,282N00000X,100 E 77TH ST 9 URIS,NEW YORK,NY,10021,2124342690,40.7738603,-73.96077830000002
691efe51a095716360cd191d,831b9e3f-f183-4c68-bf1c-2cb9469f82a8,1427104645,RICHARD LEWKOWICZ MD,General Acute Care Hospital,282N00000X,408 W 57TH ST SUITE 1E,NEW YORK,NY,10019,2127654340,40.7680768,-73.98663
691efe51a095716360cd191e,65c65fd3-a154-49a3-91a1-3b57dc22ec6f,1336285923,MEMORIAL SLOAN-KETTERING CANCER CENTER,Special Hospital,284300000X,1275 YORK AVE,NEW YORK,NY,10021,6464224470,40.7644262,-73.9569173
691efe51a095716360cd191f,66cfb085-fd69-493d-b7e0-29cb46d5ee5d,1457498834,NEW YORK-PRESBYTERIAN HOSPITAL,General Acute Care Hospital,282N00000X,5141 BROADWAY RM 2-095,NEW YORK,NY,10034,2129325218,40.8733431,-73.9130361
691efe51a095716360cd1920,6ef6d9ba-67b0-4168-860f-5c9af8a36201,1326186214,HARLEM HOSPITAL CENTER,General Acute Care Hospital,282N00000X,506 MALCOLM X BLVD,NEW YORK,NY,10037,2129392133,40.8141451,-73.9404473
691efe51a095716360cd1921,535e0a6f-5162-494a-85bd-15c2873c3eb6,1497894703,NEW YORK COLUMBIA PRESBYTERIAN,General Acute Care Hospital,282N00000X,161 FORT WASHINGTON AVE 629,NEW YORK,NY,10032,2123423255,40.8407787,-73.9431972
691efe51a095716360cd1922,0bfc38a1-c5a1-48b1-a45e-9afd8bdda849,1013056241,NEW YORK PRESBYTERIAN HOSPITAL,Chronic Disease Hospital,281P00000X,436 E 69TH ST 525 E 68TH STR,NEW YORK,NY,10021,6460808706,40.7651309,-73.9558984
691efe51a095716360cd1923,6eb979fd-32bd-4640-ab97-06bc6096816b,1972645265,NEW YORK PRESBYTERIAN,General Acute Care Hospital,282N00000X,525 E 68TH ST F2024,NEW YORK,NY,10021,2127465130,40.7648658,-73.9539836
691efe51a095716360cd1924,b0bbfe78-e981-467a-b940-cea4bd69ad2a,1063554020,SAINT VINCENTS COMPREHENSIVE CANCER CENTER,General Acute Care Hospital,282N00000X,325 WEST 15TH STREET,NEW YORK,NY,10011,2126046013,40.74121359999999,-74.003478
691efe51a095716360cd1925,609fecb2-fc0a-4821-aab9-3e5ed056dd8b,1487797858,MOUNT SINAI MEDICAL CENTER,Psychiatric Hospital Unit,273R00000X,1450 MADISON AVE BOX 1068,NEW YORK,NY,10029,2122417139,40.7896764,-73.9528404
691efe51a095716360cd1926,1fa8b331-c6a6-4d52-9fb6-6d712b9c2715,1932243037,MOUNT SINAI HOSPITAL,Long Term Care Hospital,282E00000X,1 GUSTAVE L LEVY PLACE MOUNT SINAI MEDICAL CENTER,NEW YORK,NY,10029,2122418035,40.7896393,-73.95417420000001
691efe51a095716360cd1927,807b016e-2146-492e-9887-6f314d44ef7b,1215064993,NYU MEDICAL CENTER,General Acute Care Hospital,282N00000X,462 1ST AVE,NEW YORK,NY,10016,1212562222,40.7388717,-73.9752894
691efe51a095716360cd1928,da14452a-70a0-498b-a7fb-802ef03e712f,1073640744,MEMORIAL SLOAN KETTERING CANCER CENTER,Special Hospital,284300000X,"1275 YORK AVE DEPT. OF RADIATION ONCOLOGY, SM03",NEW YORK,NY,10021,2126395999,40.7644262,-73.9569173
691efe51a095716360cd1929,dd9c541c-6221-4baa-a56e-50456896e2dd,1821127630,COLUMBIA UNIVERSITY HARLEM HOSPITAL,General Acute Care Hospital,282N00000X,506 MALCOLM X BLVD MLK - 12-108,NEW YORK,NY,10037,2129393510,40.8141451,-73.9404473
691efe51a095716360cd192a,1f61cccd-ed18-46fc-b918-08d48522f5db,1265562938,LENOX HILL HOSPITAL,Children's Hospital,282NC2000X,100 E 77TH ST,NEW YORK,NY,10021,2124342842,40.7737506,-73.96082410000001
691efe51a095716360cd192b,198acc32-8780-413d-bcd3-d3a7b7e5b69b,1760512826,NEW YORK PRESBYTERIAN HOSPITAL,General Acute Care Hospital,282N00000X,525 E 68TH ST BOX 99,NEW YORK,NY,10021,2127464998,40.7648658,-73.9539836
691efe51a095716360cd192c,4b5c2d84-84d1-4ce9-98dc-b209b6f17be0,1427189901,NEW YORK HARBOR HEALTH CARE SYSTEM,General Acute Care Hospital,282N00000X,423 E 23RD ST,NEW YORK,NY,10010,2126867500,40.7370457,-73.9768461
691efe51a095716360cd192d,2ab95bf5-eff7-4e93-bafa-06de4d0e4367,1053444372,LENOX HILL HOSPITAL,General Acute Care Hospital,282N00000X,100 E 77TH ST,NEW YORK,NY,10021,2124342710,40.7737506,-73.96082410000001
691efe51a095716360cd192e,a3abe266-19a3-42c8-8bbd-0d69a7f6f598,1730213042,BELLEVUE HOSPITAL CENTER,General Acute Care Hospital,282N00000X,462 1ST AVE ROOM # 12 EAST 12,NEW YORK,NY,10016,2125625131,40.7388717,-73.9752894
691efe51a095716360cd192f,0e4760f7-32b6-4b54-b5f5-2f6a8bdaa735,1841324126,NEW YORK CITY HEALTH AND HOSPITALS CORPORATION,General Acute Care Hospital,282N00000X,462 1ST AVE,NEW YORK,NY,10016,2125623924,40.7388717,-73.9752894
691efe51a095716360cd1930,02dd8b94-92c4-4843-91f0-0fd6a04bd0c8,1578687448,NEW YORK PRESBYTERIAN HOSP-COLUMBIA,General Acute Care Hospital,282N00000X,3959 BROADWAY NEONATOLOGY DIVISION,NEW YORK,NY,10032,2123428600,40.8398048,-73.9414011
691efe51a095716360cd1931,196b7ccc-ba84-41d1-94a8-904dbea6b7e4,1841315371,NEW YORK CITY HEALTH AND HOSPITALS CORPORATION,General Acute Care Hospital,282N00000X,506 MALCOLM X BLVD,NEW YORK,NY,10037,3475974455,40.8141451,-73.9404473
691efe51a095716360cd1932,8a586a58-12d8-4a16-a2b4-7777467dd4ab,1427175991,LENOX HILL HOSPITAL,General Acute Care Hospital,282N00000X,100 E 77TH ST,NEW YORK,NY,10021,2124342000,40.7737506,-73.96082410000001
691efe51a095716360cd1933,cc269138-d151-4baa-9951-645397dc9306,1871619692,NEW YORK PRESBYTERIAN HOSPITAL,General Acute Care Hospital,282N00000X,622 W 168TH ST HARKNESS PAVILION,NEW YORK,NY,10032,2123054960,40.8410959,-73.9405652
691efe51a095716360cd1934,88c29a14-d535-4868-acea-52abdc9a28f0,1801912431,SAINT VINCENT'S CATHOLIC MEDICAL CENTER,Psychiatric Hospital,283Q00000X,203 W 12TH ST SUITE 627,NEW YORK,NY,10011,2126048807,40.73758429999999,-74.0010379
691efe51a095716360cd1935,e3338729-9969-43cd-9505-1ca5fd044501,1932227279,CHILDREN'S HOSPITAL OF NY PRESBYTERIAN,Children's Hospital,282NC2000X,3959 BROADWAY 5 TOWER,NEW YORK,NY,10032,2123428530,40.8398048,-73.9414011
691efe51a095716360cd1936,7a312e9b-9237-4e66-b444-8a00a8d76c3c,1528185261,CHILDREN'S HOSPITAL OF NEWYORK,Children's Hospital,282NC2000X,3959 BROADWAY,NEW YORK,NY,10032,2123428600,40.8398048,-73.9414011
691efe51a095716360cd1937,6bffa6cc-faa1-4c9a-a3f1-9900597ce0e0,1598884017,NYU MEDICAL CENTER,Children's Hospital,282NC2000X,545 1ST AVE # C-120,NEW YORK,NY,10016,2122636600,40.7424439,-73.9749599
691efe51a095716360cd1938,286503af-5c9f-455b-b097-eb46a233c415,1790805265,CHILDREN'S HOSPITAL OF NY PRESBYTERIAN,Children's Hospital,282NC2000X,3959 BROADWAY 5 TOWER,NEW YORK,NY,10032,2123428530,40.8398048,-73.9414011
691efe51a095716360cd1939,51306273-0e75-4482-a97c-1442ec696789,1912029232,NEW YORK PRESBYTERIAN HOSPITAL,General Acute Care Hospital,282N00000X,3959 BROADWAY,NEW YORK,NY,10032,2123428670,40.8398048,-73.9414011
691efe51a095716360cd193a,153118b7-7c22-4cec-b7db-616c8d907646,1215050307,NEW YORK PRESBYTERIAN MEDICAL CENTER,General Acute Care Hospital,282N00000X,180 FORT WASHINGTON AVE HP6 CLINIC,NEW YORK,NY,10032,2123053174,40.84095019999999,-73.94160939999999
691efe51a095716360cd193b,866a51a7-a887-4e74-810f-1a7c341ee2e6,1790808483,NEW YORK PRESBYTERIAN HOSPITAL,General Acute Care Hospital,282N00000X,622 W 168TH ST PH14 ROOM 104,NEW YORK,NY,10032,2123057771,40.8410959,-73.9405652
691efe51a095716360cd193c,bc139323-f785-44ce-8c8d-3e4c6acea8f2,1528181187,BETH ISRAEL MEDICAL CENTER,General Acute Care Hospital,282N00000X,103 E 125TH ST 4TH FLOOR,NEW YORK,NY,10035,2127743200,40.8050967,-73.9386074
691efe51a095716360cd193d,24683955-c9fd-4c1f-a2ff-7878c654eb6c,1881817583,BETH ISRAEL MEDICAL CENTER,General Acute Care Hospital,282N00000X,160 WATER ST,NEW YORK,NY,10038,2122562582,40.70683349999999,-74.0058663
691efe51a095716360cd193e,e51618ec-3f9f-4ca2-80da-4c4e0cb2905d,1437372992,BETH ISRAEL MEDICAL CENTER,General Acute Care Hospital,282N00000X,132 W 125TH ST 6TH FLOOR,NEW YORK,NY,10027,2128640904,40.8083324,-73.9472993
691efe51a095716360cd193f,c575a315-096b-4bcd-9392-0787c1582ed8,1891910089,COLUMBIA PRESBYTERIAN HOSPITAL,General Acute Care Hospital,282N00000X,622 W 168TH ST PH 12 RM 1272,NEW YORK,NY,10032,2123057600,40.8410959,-73.9405652
691efe51a095716360cd1940,8e547abe-305e-407d-b061-e92ea5c2fed8,1891911087,NEW YORK PRESBYTERIAN HOSPITAL WEILL MEDICAL COLLEGE,General Acute Care Hospital,282N00000X,525 EAST 68TH STREET ROOM F1401,NEW YORK,NY,10021,2127465779,40.7648658,-73.9539836
691efe51a095716360cd1941,9abc95a4-a91b-492e-8fe1-b1209cd4ed88,1023234911,LENOX HILL HOSPITAL,Children's Hospital,282NC2000X,100 E 77TH ST,NEW YORK,NY,10021,2124342842,40.7737506,-73.96082410000001
691efe51a095716360cd1942,e8ae5148-fb1c-4c5c-b775-572a122a5498,1194942201,NEW YORK PRESBYTERIAN HOSPITAL,General Acute Care Hospital,282N00000X,5141 BROADWAY,NEW YORK,NY,10034,2129324245,40.8733663,-73.9131104
691efe51a095716360cd1943,8164fa55-3898-4245-ab57-d9c101737260,1790904175,COLUMBIA UNIVERSITY MEDICAL CENTER,General Acute Care Hospital,282N00000X,630 W 168TH ST,NEW YORK,NY,10032,2123055084,40.8408953,-73.9409419
691efe51a095716360cd1944,2c73bbf7-83a5-4bc7-af8b-816f2a471d45,1881815934,BETH ISRAEL HOSPITAL,Children's Hospital,282NC2000X,BETH ISRAEL HOSPITAL 16TH STREET FIRST AVENUE,NEW YORK,NY,10003,2124202860,40.7331881,-73.9820909
691efe51a095716360cd1945,55afa9fc-ea1a-43e7-82c2-45b62e054490,1649492877,NEW YORK UNIVERSITY MEDICAL CENTER,General Acute Care Hospital,282N00000X,"560 FIRST AVE, HCC-13 NYUMC CARDIAC AND VASCULAR CENTER",NEW YORK,NY,10016,2122633130,40.7428178,-73.97390469999999
691efe51a095716360cd1946,c1b1d1c6-3e61-47c7-a9df-119b0f64752d,1518170463,BELLEVUE HOSPITAL CENTER,General Acute Care Hospital,282N00000X,30 WATERSIDE PLZ 23C,NEW YORK,NY,10010,2127252923,40.7378223,-73.9729358
691efe51a095716360cd1947,581824b9-3bd8-4faf-893b-8554ca3abc4c,1932312816,NYU HOSPITALS CENTER,General Acute Care Hospital,282N00000X,560 FIRST AVENUE,NEW YORK,NY,10016,2125626380,40.7428178,-73.97390469999999
691efe51a095716360cd1948,949396f9-c83a-47ef-84ab-36ca77591434,1568676880,NEW YORK PRESBYTERIAN HOSPITAL,General Acute Care Hospital,282N00000X,525 E 68TH ST F-610,NEW YORK,NY,10021,2127462036,40.7643962,-73.9539303
691efe51a095716360cd1949,103536ce-ccda-4792-a21e-43f95bf7da15,1891900775,ST. LUKES ROOSEVELT HOSPITAL CENTER,General Acute Care Hospital,282N00000X,1111 AMSTERDAM AVE,NEW YORK,NY,10025,2125234461,40.8054067,-73.96133069999999
691efe51a095716360cd194a,255e8dde-0d41-4d53-8911-97a3807f4baa,1396951794,THE MOUNT SINAI HOSPITAL,General Acute Care Hospital,282N00000X,1 GUSTAVE L LEVY PL BOX 1144,NEW YORK,NY,10029,2122413963,40.7901411,-73.95381929999999
691efe51a095716360cd194b,70d1e74e-5c72-463e-ae90-8878b6a0967a,1053520973,NEW YORK PRESBYTERIAN HOSPITAL,General Acute Care Hospital,282N00000X,622 W 168TH ST PH 12,NEW YORK,NY,10032,2123057600,40.8410959,-73.9405652
691efe51a095716360cd194c,253aa9fe-8950-4935-80a1-50eaa41e720b,1013128958,"CONCORDE MEDICAL GROUP, PLLC.",Chronic Disease Hospital,281P00000X,135 E 37TH ST,NEW YORK,NY,10016,2126838105,40.7482247,-73.9778833
691efe51a095716360cd194d,0e5328cc-8112-4a60-bc10-b3078c409ac0,1992916878,BETH ISRAEL MEDICAL CENTER,General Acute Care Hospital,282N00000X,16TH STREET FIRST AVENUE,NEW YORK,NY,10003,2124202000,40.732686,-73.9816218
691efe51a095716360cd194e,4930fa2a-720c-4b8e-bf16-f75d447255b0,1316158884,NEW YORK UNIVERSITY HOSPITAL CENTER,Critical Access Hospital,282NC0060X,560 1ST AVE,NEW YORK,NY,10016,2122630448,40.7428178,-73.97390469999999
691efe51a095716360cd194f,2c31fddb-6a5b-40cc-988b-61d9fa16e5dd,1225249865,NYU MEDICAL CENTER,General Acute Care Hospital,282N00000X,550 1ST AVE,NEW YORK,NY,10016,2122633130,40.7420165,-73.9736533
691efe51a095716360cd1950,3205e387-8a96-42a5-9f37-d10f1f4d9326,1285845537,ALBERT EINSTEIN MEDICAL CENTER,General Acute Care Hospital,282N00000X,1305 YORK AVE 10TH FLOOR,NEW YORK,NY,10021,6469627246,40.7656066,-73.9553663
691efe51a095716360cd1951,c685b801-f910-48ad-8108-2862df1482fa,1235331497,MT. SINAI MEDICAL CENTER,General Acute Care Hospital,282N00000X,1 GUSTAVE L LEVY PL BOX 1165,NEW YORK,NY,10029,2122416633,40.7901411,-73.95381929999999
691efe51a095716360cd1952,d57c7a06-1cc2-45d1-9934-d24e75e89402,1235331893,DR. CAROLYN BROMLEY,Psychiatric Hospital Unit,273R00000X,19 W 34TH ST PENTHOUSE,NEW YORK,NY,10001,9177630328,40.7492988,-73.9859014
691efe51a095716360cd1953,d74bc318-b458-4b17-9a88-5b7ef8a30979,1487857744,NEW YORK-PRESBYTERIAN,Chronic Disease Hospital,281P00000X,300 E 74TH ST,NEW YORK,NY,10021,2127727558,40.7697744,-73.9576055
691efe51a095716360cd1954,51a9b81e-6420-42eb-8c39-2ac19326afd2,1568666253,ST VINCENT'S HOSPITAL,Psychiatric Hospital,283Q00000X,144 W 12TH ST FOURTH FLOOR RM 433,NEW YORK,NY,10011,2126048238,40.73653789999999,-73.9993717
691efe51a095716360cd1955,be46217a-15b0-43a7-ba11-cc9ec5ba307c,1295933398,LENOX HILL HOSPITAL,General Acute Care Hospital,282N00000X,130 E 77TH ST OBGYN 2ND FLOOR,NEW YORK,NY,10021,2124342160,40.7736922,-73.9603089
691efe51a095716360cd1956,20f89aed-1ef7-45c5-b2ca-1c79e527b91d,1396944328,NEW YORK UNIVERSITY SCHOOL OF MEDICINE,General Acute Care Hospital,282N00000X,462 1ST AVE,NEW YORK,NY,10016,2122633888,40.7388717,-73.9752894
691efe51a095716360cd1957,d1d8ef0a-224e-4e2b-8d63-171082252790,1871792101,ST LUKES ROOSEVELT HOSPITAL,Psychiatric Hospital,283Q00000X,1000 10TH AVE,NEW YORK,NY,10019,2125235825,40.770024,-73.9874562
691efe51a095716360cd1958,2693fae2-313c-4483-a39b-9b2efceeb7eb,1043410806,LENOX HILL HOSPITAL,General Acute Care Hospital,282N00000X,435 E 77TH ST APT 6H,NEW YORK,NY,10075,2124342160,40.7708167,-73.9527889
691efe51a095716360cd1959,d28a8150-75fd-438d-a539-49b94113028a,1215137070,LENOX HILL HOSPITAL,General Acute Care Hospital,282N00000X,425 E 81ST ST APT 1 FW,NEW YORK,NY,10028,5169469505,40.7732499,-73.9501928
691efe51a095716360cd195a,98c4cc31-528c-44fc-b389-d06ba2ef6f50,1316147176,LENOX HILL HOSPITAL,General Acute Care Hospital,282N00000X,100 E 77TH ST,NEW YORK,NY,10075,2124342160,40.7737506,-73.96082410000001
691efe51a095716360cd195b,7221651f-7387-4e83-a519-48b25ce92e42,1245420165,THE NEW YORK BLOOD CENTER,General Acute Care Hospital,282N00000X,310 E 67TH ST,NEW YORK,NY,10065,2125703277,40.7649371,-73.96018269999999
691efe51a095716360cd195c,26ca0703-b63d-4ab7-8100-2ba07174c9a0,1386834869,MSKCC,Children's Hospital,282NC2000X,1275 YORK AVE,NEW YORK,NY,10065,2126396911,40.7644262,-73.9569173
691efe51a095716360cd195d,7309e0c9-2103-48b9-90cc-c7e69327bb04,1689864175,LENOX HILL HOSPITAL,General Acute Care Hospital,282N00000X,215 E 77TH ST APT 1D,NEW YORK,NY,10075,2123270109,40.7727913,-73.9572696
691efe51a095716360cd195e,e2e7193e-30b7-4f31-aa46-479cae6b598c,1811189814,NEW YORK PRESBYTERIAN,General Acute Care Hospital,282N00000X,177 FORT WASHINGTON AVE,NEW YORK,NY,10032,1213051246,40.8414253,-73.9430868
691efe51a095716360cd195f,63f9d479-4677-4c6a-a75b-574cfa471b57,1942494802,PAUL CASADONTE,General Acute Care Hospital,282N00000X,430 E 23RD ST,NEW YORK,NY,10010,2126867500,40.7362686,-73.9770748
691efe51a095716360cd1960,353310d9-8fd2-430e-bd59-319bae776788,1568658177,ST VINCENTS CATHOLIC MEDICAL CENTER,General Acute Care Hospital,282N00000X,170 W 12TH ST COLEMAN 801,NEW YORK,NY,10011,2126047000,40.7369108,-74.00031109999999
691efe51a095716360cd1961,00d94e7e-0277-42a5-a8a1-bbe3a896cff0,1871772970,DR. MARK SULTAN,General Acute Care Hospital,282N00000X,1100 PARK AVE,NEW YORK,NY,10128,2123600700,40.7824395,-73.9561648
691efe51a095716360cd1962,df171366-67a8-4964-8008-469d2465489b,1508046764,MEMORIAL SLOAN-KETTERING CANCER CENTER,General Acute Care Hospital,282N00000X,1275 YORK AVE M1443,NEW YORK,NY,10065,2126396946,40.7644262,-73.9569173
691efe51a095716360cd1963,2471a97a-739c-4488-85b8-4835604bb22a,1831379932,JAMIE J. VOCCOLA,Children's Chronic Disease Hospital,281PC2000X,"1275 YORK AVE PEDIATRIC DAY HOSPITAL, SARCOMA TEAM",NEW YORK,NY,10065,2126395255,40.7644262,-73.9569173
691efe51a095716360cd1964,769d9d2f-9df3-4cdd-86a0-f262b4be019b,1790969269,THE NEW YORK AND PRESBYTERIAN HOSPITAL,General Acute Care Hospital,282N00000X,525 E 68TH ST,NEW YORK,NY,10065,2127465454,40.7648658,-73.9539836
691efe51a095716360cd1965,e6520032-9471-4aec-8c1b-2ee426b06475,1770767931,METROPOLITAN HOSPITAL CENTER,General Acute Care Hospital,282N00000X,1918 1ST AVE #124,NEW YORK,NY,10029,6463261915,40.7844954,-73.9431003
691efe51a095716360cd1966,123f9745-b165-464d-bd56-48f25fcfb068,1770768202,THE NEW YORK AND PRESBYTERIAN HOSPITAL,General Acute Care Hospital,282N00000X,622 W 168TH ST,NEW YORK,NY,10032,2123052500,40.8410959,-73.9405652
691efe51a095716360cd1967,96c348f1-da6a-41fa-820e-628e0910d3b7,1396921839,NEW YORK PRESBYTERIAN MEDICAL CENTER,General Acute Care Hospital,282N00000X,5141 BROADWAY,NEW YORK,NY,10034,2129324000,40.8733663,-73.9131104
691efe51a095716360cd1968,fafc54e2-5395-4cb7-8469-51408650959e,1598942211,MEMORIAL SLOAN KETTERING CANCER CENTER,Special Hospital,284300000X,1275 YORK AVE,NEW YORK,NY,10065,2126396920,40.7644262,-73.9569173
691efe51a095716360cd1969,98474550-da03-4eab-927c-28680c853285,1134306855,MEMORIAL SLOAN KETTERING CANCER CENTER,General Acute Care Hospital,282N00000X,1275 YORK AVE MEMORIAL 7,NEW YORK,NY,10065,2126392000,40.7644262,-73.9569173
691efe51a095716360cd196a,5ef8e805-91eb-437d-89f4-f662b0afb93b,1356528756,"NY PRESBYTERIAN HOSPITAL, COLUMBIA UNIVERSITY MEDICAL CENTER",Chronic Disease Hospital,281P00000X,622 W 168TH ST PH12,NEW YORK,NY,10032,2123423926,40.8410959,-73.9405652
691efe51a095716360cd196b,151196de-464c-4183-9abe-d85722ab6f70,1801073291,NEW YORK STATE PSYCHIATRIC INSTITUTE,Psychiatric Hospital,283Q00000X,1051 RIVERSIDE DR,NEW YORK,NY,10032,2125435452,40.8426267,-73.94455549999999
691efe51a095716360cd196c,b9600af8-77e4-40bb-b13f-a84c2c41dfa5,1699953091,MOUNT SINAI MEDICAL CENTER,General Acute Care Hospital,282N00000X,1 GUSTAVE L LEVY PL BOX 1179,NEW YORK,NY,10029,2122417829,40.7901411,-73.95381929999999
691efe51a095716360cd196d,8dc67b5b-c9f8-43c5-939f-3ff6f9741e62,1245408251,NYU HOSPITAL,General Acute Care Hospital,282N00000X,560 1ST AVE,NEW YORK,NY,10016,2122632748,40.7428178,-73.97390469999999
691efe51a095716360cd196e,b1681575-cf9f-4b30-8dd6-6cd8985d910f,1639348709,NEWYORK-PRESBYTERIAN HOSPTIAL,General Acute Care Hospital,282N00000X,525 E 68TH ST BOX 130,NEW YORK,NY,10065,2127464749,40.7648658,-73.9539836
691efe51a095716360cd196f,f53dd790-13ac-48eb-96ad-81abe2dbd4b2,1831360163,MEMORIAL SLOAN KETTERING CANCER CENTER,Special Hospital,284300000X,1275 YORK AVE 5THE FLR RM 513,NEW YORK,NY,10065,2126393259,40.7644262,-73.9569173
691efe51a095716360cd1970,493adaf1-8253-4315-90c9-462275fd7bb2,1366614562,"TRUSTEES OF COLUMBIA UNIVERSITY, RAD. DEPT.",General Acute Care Hospital,282N00000X,710 W 168TH ST # B-41,NEW YORK,NY,10032,2123420299,40.8429662,-73.9424631
691efe51a095716360cd1971,cd9c943b-77cf-4567-9a73-74349d11491c,1700059326,LENOX HILL HOSPTIAL,General Acute Care Hospital,282N00000X,100 E 77TH ST,NEW YORK,NY,10075,2124342150,40.7737506,-73.96082410000001
691efe51a095716360cd1972,3987b06d-7fc3-4387-8128-305f12f7cc24,1215100458,TERENCE CARDINAL COOKE HEALTH CARE CENTER,Long Term Care Hospital,282E00000X,1249 5TH AVE,NEW YORK,NY,10029,2123603764,40.793576,-73.9505396
691efe51a095716360cd1973,8e4afdf0-6774-4940-b5a4-b2ac0de7e2b9,1134393911,NYU,Critical Access Hospital,282NC0060X,550 1ST AVE SUITE 6-C SCHWARTZ HCC,NEW YORK,NY,10016,2122637302,40.7420165,-73.9736533
691efe51a095716360cd1974,de738c77-3a69-43fb-95ac-b5d4995d277c,1992979389,MT. SINAI MEDICAL CENTER,General Acute Care Hospital,282N00000X,1176 5TH AVE,NEW YORK,NY,10029,2122417409,40.789339,-73.9537593
691efe51a095716360cd1975,25a70903-e0ab-4353-b588-e170b80b6a75,1316111487,MOUNT SINAI HOSPITAL,General Acute Care Hospital,282N00000X,5 E 98TH ST BOX 1188,NEW YORK,NY,10029,2122411621,40.7889691,-73.9538996
691efe51a095716360cd1976,5adda30b-2793-48b2-ad2a-abc265171321,1962677203,MEMORIAL SLOAN KETTERING CANCER CENTER,General Acute Care Hospital,282N00000X,425 E 67TH ST DEPT. OF RADIATION ONCOLOGY,NEW YORK,NY,10065,2126398194,40.7644103,-73.9574291
691efe51a095716360cd1977,9497c3c2-62e0-4af2-8aca-e1bc23a75505,1568638823,NYU,General Acute Care Hospital,282N00000X,2 TUDOR CITY PLACE APT 3EN,NEW YORK,NY,10017,2126617335,40.7478488,-73.97152799999999
691efe51a095716360cd1978,51e99798-d663-486c-8bc8-8cec73ffee53,1437325628,SAINT VINCENT'S HOSPITAL,General Acute Care Hospital,282N00000X,170 W 12TH ST SPELLMAN 7TH FLOOR,NEW YORK,NY,10011,2126046201,40.7369108,-74.00031109999999
691efe51a095716360cd1979,199dd7e2-6eda-415f-a72e-28c9a392cc7c,1588831796,NEW YORK PRESBYTERIAN HOSPITAL,Psychiatric Hospital,283Q00000X,525 E 68TH ST BOX 140,NEW YORK,NY,10065,2127465753,40.7648658,-73.9539836
691efe51a095716360cd197a,6de32717-2193-45ad-ab24-ea1c0bf4c52a,1013184282,NY PRESBYTERIAN HOSPITAL,General Acute Care Hospital,282N00000X,435 E 70TH ST APT 22D,NEW YORK,NY,10021,2125709054,40.7659324,-73.955058
691efe51a095716360cd197b,e2bbb3e0-1484-4ff4-b7d1-959ce3739313,1558528620,NEW YORK PRESBYTERIAN HOSPITAL-WEILL CORNELL,General Acute Care Hospital,282N00000X,505 E 70TH ST STE 400,NEW YORK,NY,10021,2127463587,40.7657186,-73.9541658
691efe51a095716360cd197c,4ad3a1d8-81b3-446b-9285-cab135e54f93,1750548749,NEW YORK PRESBYTERIAN - WEILL CORNELL,General Acute Care Hospital,282N00000X,525 E 68TH ST,NEW YORK,NY,10065,2127463030,40.7648658,-73.9539836
691efe51a095716360cd197d,97bfb5ad-34ba-4771-bb20-8fb9cbb660ee,1821255365,MEMORIAL SLOAN KETTERING CANCER CENTER,Special Hospital,284300000X,1275 YORK AVE BOX 435,NEW YORK,NY,10065,2126397537,40.7644262,-73.9569173
691efe51a095716360cd197e,c9fb676a-5759-43f0-b7f7-92d1b4484688,1225295512,MOUNT SINAI HOSPITAL PHARMACY,General Acute Care Hospital,282N00000X,1 GUSTAVE L LEVY PL BOX 1211,NEW YORK,NY,10029,2127313752,40.7901411,-73.95381929999999
691efe51a095716360cd197f,3e39927c-0b32-4069-a012-d9f888a93c20,1316105422,NY PRESBYTERIAN WEILL CORNELL MEDICAL CENTER,General Acute Care Hospital,282N00000X,525 E 68TH ST,NEW YORK,NY,10065,2127462150,40.7648658,-73.9539836
691efe51a095716360cd1980,f691beae-4dd5-4ebc-9173-9ec8bdc5d5a9,1497913529,HOSPITAL FOR SPECIAL SURGERY,General Acute Care Hospital,282N00000X,535 E 70TH ST,NEW YORK,NY,10021,2126061000,40.765048,-73.9529124
691efe51a095716360cd1981,e4ef0928-bd1a-49ce-ad7e-1d26eebd7e9e,1710145776,MEMORIAL SLOAN-KETTERING CANCER CENTER,General Acute Care Hospital,282N00000X,475 MAIN ST #11B,NEW YORK,NY,10044,3476222284,40.7600768,-73.95177249999999
691efe51a095716360cd1982,de8eb1d3-09f4-4f2e-b0c6-bd206df89e4d,1447418348,THE MOUNT SINAI HOSPITAL,Special Hospital,284300000X,1 GUSTAVE L LEVY PL,NEW YORK,NY,10029,2122414000,40.7901411,-73.95381929999999
691efe51a095716360cd1983,d7074ef4-8812-48cb-be53-8ed545dca0c3,1942468855,BETH ISRAEL MEDICAL CENTER,Critical Access Hospital,282NC0060X,10 UNION SQ E 2Q,NEW YORK,NY,10003,2128446897,40.7348529,-73.9897794
691efe51a095716360cd1984,f08c2b02-aba0-47eb-981e-7d7b7c603a72,1013175975,NEW YORK HOSPITAL NYP,Psychiatric Hospital,283Q00000X,525 E 68TH ST,NEW YORK,NY,10065,6503875736,40.7648658,-73.9539836
691efe51a095716360cd1985,e156b3e6-6a07-4bc8-9425-c6b8b39cedd7,1548428394,BETH ISREAL MEDICAL CENTER NY,General Acute Care Hospital,282N00000X,10 UNION SQUARE EAST SUITE 4C,NEW YORK,NY,10003,2128448288,40.73498430000001,-73.9896852
691efe51a095716360cd1986,327ad63a-322b-46eb-a48d-3a672d4a9c29,1952569360,MEMORIAL SLOAN KETTERING CANCER CENTER,Special Hospital,284300000X,1275 YORK AVE,NEW YORK,NY,10065,2126397886,40.7644262,-73.9569173
691efe51a095716360cd1987,16cdbe11-e9f5-4276-b35b-0821fd9567cd,1487813713,NYPH WEILL CORNELL,Children's Hospital,282NC2000X,525 E 68TH ST,NEW YORK,NY,10065,2127463320,40.7648658,-73.9539836
691efe51a095716360cd1988,4caa6abd-de03-4b58-80f6-6de14eaecff1,1063671352,ST.LUKES-ROOSEVELT HOSPITAL CENTER,Chronic Disease Hospital,281P00000X,1111 AMSTERDAM AVE C/O OUTPATIENT PHARMACY 3RD FLOOR,NEW YORK,NY,10025,2126361122,40.8054067,-73.96133069999999
691efe51a095716360cd1989,e5dda0b4-557f-4394-872d-5b6eb1bb19b7,1518126382,MT SINAI HOSPITAL,Critical Access Hospital,282NC0060X,1 GUSTAVE L LEVY PL,NEW YORK,NY,10029,2122418095,40.7901411,-73.95381929999999
691efe51a095716360cd198a,16894202-be8b-4110-bd13-752ed77ca04b,1396904231,NEW YORK PRESBYTERIAN HOSPITAL - CORNELL MEDICAL CENTER,General Acute Care Hospital,282N00000X,525 E 68TH ST DEPARTMENT OF SURGERY,NEW YORK,NY,10065,2127465380,40.7643535,-73.9551627
691efe51a095716360cd198b,50d50cec-9052-4c25-9587-f9db21e6dc05,1568621548,MEMORIAL SLOAN KETTERING CANCER CENTER,Special Hospital,284300000X,1275 YORK AVE,NEW YORK,NY,10065,2126392000,40.7644262,-73.9569173
691efe51a095716360cd198c,da871965-a435-4523-8482-2c61fabb482e,1508025305,MOUNT SINAI HOSPITAL,General Acute Care Hospital,282N00000X,1 GUSTAVE L. LEVY PLACE,NEW YORK,NY,10029,2122416500,40.7901411,-73.95381929999999
691efe51a095716360cd198d,d93592fb-d5c6-4c97-a804-5976dc2cafc4,1285893057,MOUNT SINAI MEDICAL CENTER,General Acute Care Hospital,282N00000X,1425 MADISON AVE EAST BLDG ROOM 1170 BOX 1123,NEW YORK,NY,10029,2126599517,40.7886341,-73.9528119
691efe51a095716360cd198e,8a7d8662-6c06-434d-a203-17461ad51a38,1821257536,NEW YORK PRESBYTERIAN HOSPITAL,Children's Hospital,282NC2000X,525 E 68TH ST BOX 91,NEW YORK,NY,10065,2127463278,40.7648658,-73.9539836
691efe51a095716360cd198f,9f43f771-de9d-448e-b7e3-952348f91eab,1326207994,NEW YORK PRESBYTERIAN HOSPTIAL-WEILL CORNELL,General Acute Care Hospital,282N00000X,525 E 70TH ST 5HT,NEW YORK,NY,10021,2127463200,40.7648899,-73.9524263
691efe51a095716360cd1990,fe55b713-5db3-427a-a3c7-704c058bb2e6,1275792863,NEW YORK PRESBYTERIAN HOSPITAL,General Acute Care Hospital,282N00000X,525 EAST 68TH STREET DEPT OF NEPHROLOGY AND HTN,NEW YORK,NY,10065,2127466115,40.7648658,-73.9539836
691efe51a095716360cd1991,80963824-1272-497a-944e-9e39cd0d174f,1013177435,MEMORIAL SLOAN KETTERING CANCER CENTER,Critical Access Hospital,282NC0060X,1275 YORK AVE HOWARD 10,NEW YORK,NY,10065,2126397243,40.7644262,-73.9569173
691efe51a095716360cd1992,159fb2c5-ecb0-4ec8-aa04-90b590be8014,1861652182,NEW YORK PRESBYTERIAN,Children's Hospital,282NC2000X,340 W 71ST ST APT 5,NEW YORK,NY,10023,7143764726,40.7795574,-73.98649420000001
691efe51a095716360cd1993,51801bd3-8a37-4586-96b1-12838cc2417b,1952561441,BETH ISRAEL MEDICAL CENTER,General Acute Care Hospital,282N00000X,1 1ST AVE SUITE 1,NEW YORK,NY,10003,2124203363,40.7300331,-73.9833235
691efe51a095716360cd1994,25d4d22d-4ac2-4e2e-95fc-4f7f97e5145a,1164682340,MOUNT SINAI HOSPITAL,General Acute Care Hospital,282N00000X,1 GUSTAVE L LEVY PL,NEW YORK,NY,10029,2122416500,40.7901411,-73.95381929999999
691efe51a095716360cd1995,288f348c-3b19-43ac-90e4-854dfc8995e4,1720248453,ST. VINCENT CATHOLIC MEDICAL CENTER,General Acute Care Hospital,282N00000X,170 BROADWAY SUITE 1208,NEW YORK,NY,10038,2123462582,40.7096145,-74.0098708
691efe51a095716360cd1996,caba1b0b-b64d-41a6-89e1-676b4148b325,1700047636,NEW YORK PRESBYTERIAN HOSPITAL,General Acute Care Hospital,282N00000X,205 PINEHURST AVE APT 6K,NEW YORK,NY,10032,9172701144,40.8548189,-73.9377359
691efe51a095716360cd1997,e092f564-8ef9-40f0-9c8f-c9471ba9942a,1821259672,ST VINCENTS TRAUMA AND WELLNESS CENTER,Psychiatric Hospital,283Q00000X,170 BROADWAY SUITE 1208,NEW YORK,NY,10038,2123462582,40.7096145,-74.0098708
691efe51a095716360cd1998,e8465101-1841-470a-905d-5801bae3bdce,1891956645,COLUMBIA UNIVERSITY,General Acute Care Hospital,282N00000X,622 W 168TH ST,NEW YORK,NY,10032,2123055974,40.8410959,-73.9405652
691efe51a095716360cd1999,b884d009-634a-483e-870d-76bb219ef813,1265694897,MEMORIAL SLOAN KETTERING CANCER CENTER,General Acute Care Hospital,282N00000X,1275 YORK AVE,NEW YORK,NY,10065,2126397555,40.7644262,-73.9569173
691efe51a095716360cd199a,ed2aad24-45c5-4685-a433-6e509250ba61,1790947091,BETH ISRAEL MEDICAL CENTER,General Acute Care Hospital,282N00000X,16 E 16TH ST,NEW YORK,NY,10003,2124202000,40.7357722,-73.9889383
691efe51a095716360cd199b,fe5703b7-de03-4f49-8c09-b9a2df0a4441,1689836835,NEW YORK UNIVERSITY MEDICAL CENTER,General Acute Care Hospital,282N00000X,550 1ST AVE,NEW YORK,NY,10016,2122637300,40.7420165,-73.9736533
691efe51a095716360cd199c,eea34833-b4fa-4b20-a57b-3f8b3f482a42,1528220340,MEMORIAL SLOAN-KETTERING CANCER CENTER,Special Hospital,284300000X,1275 YORK AVE,NEW YORK,NY,10065,6468882589,40.7644262,-73.9569173
691efe51a095716360cd199d,4e741eeb-5307-4720-8841-e85953c09f98,1639332232,VETERANS ADMINISTRATION,General Acute Care Hospital,282N00000X,423 E 23RD ST 2ND FLOOR MENAL HEALTH CLINIC,NEW YORK,NY,10010,2126867500,40.7370458,-73.9768397
691efe51a095716360cd199e,cf228890-9112-41c2-b3f4-5bea38593675,1235392606,HOSPITAL FOR SPECIAL SURGERY,Special Hospital,284300000X,270 W 17TH ST APT 11B,NEW YORK,NY,10011,5165510264,40.7412309,-74.0010072
691efe51a095716360cd199f,b2c420bb-2426-4c16-86d4-dfbd0efcffc8,1326201575,HOSPITAL FOR JOINT DISEASES NYU LAGONE MEDICAL CENTER,Special Hospital,284300000X,301 E 17TH ST,NEW YORK,NY,10003,2125986000,40.7343532,-73.9829855
691efe51a095716360cd19a0,a645fb05-9289-430b-ba39-1898953c057f,1467616219,NORTH GENERAL HOSPITAL,Psychiatric Hospital Unit,273R00000X,1879 MADISON AVE,NEW YORK,NY,10035,2124234843,40.8032081,-73.9418144
691efe51a095716360cd19a1,24231c10-9b2e-428d-99c7-e77329f00a29,1275797839,MEMORIAL SLOAN-KETTERING CANCER CENTER,Special Hospital,284300000X,353 E 68TH ST,NEW YORK,NY,10065,6464224404,40.7657326,-73.9582854
691efe51a095716360cd19a2,fe9dd1e9-0cd8-4c4d-a613-d7c9451f9d77,1689838047,COSMETIC CLINIC DERMATOLOGY,General Acute Care Hospital,282N00000X,5 E 98TH ST FL 5,NEW YORK,NY,10029,2122413050,40.7890717,-73.9538601
691efe51a095716360cd19a3,c0ce102a-a41e-4897-9fb5-3e0e439dea5c,1922262955,MEMORIAL SLOAN KETTERING CANCER CENTER,General Acute Care Hospital,282N00000X,1275 YORK AVE,NEW YORK,NY,10065,2126393266,40.7644262,-73.9569173
691efe51a095716360cd19a4,d274e990-cdf8-4a02-a803-7dde51d8d797,1235394099,MEMORIAL SLOAN-KETTERING CANCER CENTER,Special Hospital,284300000X,"1275 YORK AVENUE, BOX 435",NEW YORK,NY,10065,2126397537,40.7644262,-73.9569173
691efe51a095716360cd19a5,7df6563d-8c86-4837-a9d4-c72dc24b353f,1861657470,MEMORIAL SLOAN KETTERING CANCER CENTER,General Acute Care Hospital,282N00000X,1275 YORK AVE,NEW YORK,NY,10065,2126392000,40.7644262,-73.9569173
691efe51a095716360cd19a6,fdb34e96-3b6b-4e3c-847d-5580627aa4be,1598921470,NEW YORK UNIVERSITY MEDICAL CENTER,General Acute Care Hospital,282N00000X,550 1ST AVE,NEW YORK,NY,10016,2122637300,40.7420165,-73.9736533
691efe51a095716360cd19a7,65bd9a00-dde4-493c-9cb6-21e899fcffcb,1164688826,NEW YORK PRESBYTERIAN HOSPITAL,Children's Hospital,282NC2000X,3959 BROADWAY # BHN-616 DEPARTMENT OF PEDIATRIC PSYCHIATRY,NEW YORK,NY,10032,3478400351,40.8398048,-73.9414011
691efe51a095716360cd19a8,7a867089-7bf6-464f-a8ef-6733f1e76964,1003063280,MOUNT SINAI MEDICAL CENTER,General Acute Care Hospital,282N00000X,1 GUSTAVE L LEVY PL,NEW YORK,NY,10029,8006374624,40.7901411,-73.95381929999999
691efe51a095716360cd19a9,a19a543e-d833-458f-a649-87b6bf7b0f03,1467609370,NEW YORK UNIVERSITY,General Acute Care Hospital,282N00000X,333 E 30TH ST APT 3K,NEW YORK,NY,10016,9174768329,40.7426725,-73.9757055
691efe51a095716360cd19aa,85b8c194-c587-4da3-8dd2-d462fffd7baa,1386892297,THE MOUNT SINAI HOSPITAL,General Acute Care Hospital,282N00000X,1 GUSTAVE L LEVY PL BOX 1079,NEW YORK,NY,10029,2122413650,40.7901411,-73.95381929999999
691efe51a095716360cd19ab,c48a3638-a92d-462c-9344-a03d98226f04,1700035094,MEMORIAL SLOAN KETTERING CANCER CENTER,Chronic Disease Hospital,281P00000X,1275 YORK AVE,NEW YORK,NY,10065,2126397326,40.7644262,-73.9569173
691efe51a095716360cd19ac,c998a504-2a28-4e40-a8fe-91af2dd9aae6,1588813646,BETH ISRAEL MEDICAL CENTER,General Acute Care Hospital,282N00000X,281 1ST AVE,NEW YORK,NY,10003,3474954982,40.7328669,-73.9817051
691efe51a095716360cd19ad,15c71288-7c30-4294-970b-c5516b9e7671,1538318498,METROPOLITAN HOSPITAL CNETER,Children's Hospital,282NC2000X,1901 1ST AVE,NEW YORK,NY,10029,2124236262,40.7852328,-73.94502899999999
691efe51a095716360cd19ae,4b813c0a-3ae3-4233-96ce-430ad6b814a3,1235388034,NEW YORK PRESBYTERIAN,General Acute Care Hospital,282N00000X,445 E 68TH ST APT 10N,NEW YORK,NY,10065,2122033947,40.7648815,-73.956784
691efe51a095716360cd19af,ef11df69-9596-4ebe-8ed3-cc28aca4cb74,1801046446,NEW YORK PRESBYTERIAN HOSPITAL WEILL CORNELL MEDICAL CENTER,Special Hospital,284300000X,525 E 68TH ST BOX 312,NEW YORK,NY,10065,2127464055,40.7648658,-73.9539836
691efe51a095716360cd19b0,77e52609-195b-4094-9d61-b99a5fb8a3c7,1710137542,NEW YORK PRESBYTERIAN CORNELL,General Acute Care Hospital,282N00000X,525 E 68TH ST,NEW YORK,NY,10065,2127465454,40.7648658,-73.9539836
691efe51a095716360cd19b1,c7ab4445-aaed-42ed-85c7-8c4cd6130ad4,1588814222,NEW YORK PRESBYTERIAN HOSPITAL,Psychiatric Hospital,283Q00000X,622 WEST 168 STREET NEW YORK PRESBYTERIAN HOSPITAL,NEW YORK,NY,10032,6469422906,40.8411304,-73.9408887
691efe51a095716360cd19b2,2d810016-5f8e-4197-948d-a11e9f1c0275,1306098157,"NEW YORK NEUROLOGY & SLEEP MEDICINE, P.C.",General Acute Care Hospital,282N00000X,523 E 72ND ST 8TH FLOOR,NEW YORK,NY,10021,2127170231,40.7665633,-73.9524912
691efe51a095716360cd19b3,31c2dfb8-6cf5-4a55-9f45-28433d7c72dd,1871745224,THE MOUNT SINAI MEDICAL CENTER,General Acute Care Hospital,282N00000X,1184 5TH AVE FL 2,NEW YORK,NY,10029,2122416041,40.7900579,-73.9538592
691efe51a095716360cd19b4,e35a7a3b-24e1-4a66-b177-2a87ff195632,1073765566,NEW YORK PRESBYTERIAN/WEILL CORNELL HOSPITAL,Critical Access Hospital,282NC0060X,525 E 68TH ST,NEW YORK,NY,10065,2127465454,40.7648658,-73.9539836
691efe51a095716360cd19b5,cdd1f1c9-9232-4362-9a11-9151e05b2c27,1710139944,NYU LANGONE MEDICAL CENTER,Critical Access Hospital,282NC0060X,530 1ST AVE HCC-12 ROOM 1219,NEW YORK,NY,10016,2122632643,40.7420311,-73.9743163
691efe51a095716360cd19b6,8a494877-3671-4866-93c1-a4e93b2b1a66,1427200526,NEW YORK PRESBYTERIAN HOSPITAL,General Acute Care Hospital,282N00000X,1320 YORK AVE APARTMENT 20X,NEW YORK,NY,10021,3522629388,40.7658261,-73.9541476
691efe51a095716360cd19b7,bf001d2b-fb4c-4781-b709-3d24c66257d7,1902058860,SAINT VINCENTS COMPREHENSIVE CANCER CENTER,General Acute Care Hospital,282N00000X,325 W 15TH ST,NEW YORK,NY,10011,2126046000,40.74121359999999,-74.003478
691efe51a095716360cd19b8,64fcc270-b121-4efe-bbb2-a3ded3018236,1831342765,JACOBI MEDICAL CENTER,General Acute Care Hospital,282N00000X,532 E 82ND ST APT 5,NEW YORK,NY,10028,6466207997,40.7726288,-73.9476695
691efe51a095716360cd19b9,3a767f77-d728-44fe-ab09-e05c6806969e,1619120888,NEW YORK PRESBYTERIAN,Special Hospital,284300000X,1320 YORK AVE APT: 24A,NEW YORK,NY,10021,2167916440,40.7658261,-73.9541476
691efe51a095716360cd19ba,67549408-f9b6-4c86-9ca1-bdbf7b71a155,1619121977,NEW YORK PRESYBTERIAN HOSPITAL,General Acute Care Hospital,282N00000X,525 E 68TH ST BOX# 99,NEW YORK,NY,10065,5072029523,40.7648658,-73.9539836
691efe51a095716360cd19bb,c3890dac-eb9d-43a6-919d-52ab54eb867b,1801040944,NEW YORK EYE & EAR INFIRMARY,Children's Rehabilitation Hospital,283XC2000X,380 2ND AVE 9TH FLOOR,NEW YORK,NY,10010,6464387802,40.7369813,-73.9813485
691efe51a095716360cd19bc,3e0008d3-c99a-49af-9a6a-e33e44e22fda,1912151127,MEMORIAL SLOAN-KETTERING CANCER CENTER,Special Hospital,284300000X,1275 YORK AVE,NEW YORK,NY,10065,2126395915,40.7644262,-73.9569173
691efe51a095716360cd19bd,4af95626-24d7-4323-b272-36847d6bde21,1467607705,NY-PRESBYTERIAN HOSPITAL,Critical Access Hospital,282NC0060X,525 E 68TH ST J130,NEW YORK,NY,10065,2127463179,40.764285,-73.954258
691efe51a095716360cd19be,391b4977-e697-4f6e-937a-a6a17ddb846c,1538314711,BETH ISRAEL MEDICAL CENTER,General Acute Care Hospital,282N00000X,317 E 17TH ST 11 FIERMAN HALL,NEW YORK,NY,10003,2128441757,40.7341491,-73.9826441
691efe51a095716360cd19bf,72362892-b0eb-4843-8f61-6500134e6815,1649415571,BETH ISRAEL MEDICAL CENTER,Rehabilitation Hospital Unit,273Y00000X,FIRST AVENUE AND 16TH STREET,NEW YORK,NY,10003,2122563027,40.732686,-73.9816218
691efe51a095716360cd19c0,cbb14897-77b9-46d7-9cd0-8a699176b475,1508001405,ST. LUKES ROOSEVELT HOSPITAL CENTER,Psychiatric Hospital Unit,273R00000X,1111 AMSTERDAM AVENUE,NEW YORK,NY,10025,2122563027,40.8054067,-73.96133069999999
691efe51a095716360cd19c1,c731f820-d44b-44f1-aeb9-2ff921ceea73,1063657963,BETH ISRAEL MEDICAL CENTER,Psychiatric Hospital Unit,273R00000X,FIRST AVENUE & 16TH STREET,NEW YORK,NY,10003,2122563027,40.732686,-73.9816218
691efe51a095716360cd19c2,59d54ab0-acc4-4440-8577-f275d4c89650,1417192311,ST LUKES ROOSEVELT HOSPITAL CENTER,Rehabilitation Hospital Unit,273Y00000X,1111 AMSTERDAM AVE,NEW YORK,NY,10025,2122563027,40.8054067,-73.96133069999999
691efe51a095716360cd19c3,57cc89db-a11b-4bc5-a69b-2499dbb33c01,1013152453,MT. SINAI MEDICAL CENTER,General Acute Care Hospital,282N00000X,1 GUSTAVE L LEVY PL BOX # 1495,NEW YORK,NY,10029,2122415566,40.7901411,-73.95381929999999
691efe51a095716360cd19c4,21e1988c-0550-4757-a6b7-c3567c8def02,1447497714,METROPOLITAN HOSPITAL,General Acute Care Hospital,282N00000X,1901 1ST AVE,NEW YORK,NY,10029,2124236464,40.7852328,-73.94502899999999
691efe51a095716360cd19c5,d80356d9-9a76-423f-9d3f-08b0f48d30f7,1376780304,HARLEM HOSPITAL CENTER,General Acute Care Hospital,282N00000X,506 LENOX AVE SOCIAL WORK DEPARTMENT,NEW YORK,NY,10037,2129394600,40.8146069,-73.9392886
691efe51a095716360cd19c6,e837c613-2707-402f-bc85-673f2872a4ac,1497992218,MOUNT SINAI HOSPITAL,General Acute Care Hospital,282N00000X,ONE GUSTAVE L. LEVY PLACE THE MOUNT SINAI HOSPITAL,NEW YORK,NY,10029,2122418449,40.7888899,-73.9540398
691efe51a095716360cd19c7,56efd235-80fa-4d2a-a2de-2570d858a6b3,1093952772,MT SINAI MEDICAL CENTER,General Acute Care Hospital,282N00000X,1468 MADISON AVE,NEW YORK,NY,10029,2122445211,40.7902728,-73.9521681
691efe51a095716360cd19c8,c79c2318-0743-49cb-babb-0a7e91f76968,1912145426,COLUMBIA UNIVERSITY MEDICAL CENTER,Children's Hospital,282NC2000X,622 W 168TH ST DEPARTMENT OF PEDIATRICS - CHN5-517,NEW YORK,NY,10032,2123058504,40.8410959,-73.9405652
691efe51a095716360cd19c9,195f1527-1619-4d4f-a51c-c92f0d4877cb,1336387588,NEW YORK SOCIETY FOR RELIEF OF THE RUPTURED AND CRIPPLED MAINTAINING T,General Acute Care Hospital,282N00000X,535 E 70TH ST,NEW YORK,NY,10021,2126061398,40.765048,-73.9529124
691efe51a095716360cd19ca,bce32d52-8637-4539-aed4-f9a52710d2bc,1679711626,MOUNT SINAI MEDICAL CENTER,General Acute Care Hospital,282N00000X,1 GUSTAVE L LEVY PL,NEW YORK,NY,10029,2122416500,40.7901411,-73.95381929999999
691efe51a095716360cd19cb,6953c199-47c8-48d2-9821-be121d9b0994,1679713705,NYPRESBYTERIAN HOSPITAL,Special Hospital,284300000X,1320 YORK AVE APT 24A,NEW YORK,NY,10021,2167916440,40.7658261,-73.9541476
691efe51a095716360cd19cc,2d79b926-18b4-4a67-a231-e35ae1e59c05,1942441514,NEW YORK UNIVERSITY MEDICAL CENTER,General Acute Care Hospital,282N00000X,589 1ST AVE APT 4,NEW YORK,NY,10016,8474456001,40.7436363,-73.97392959999999
691efe51a095716360cd19cd,7c6af0a1-4d7c-4ac7-b53e-91825b0552a3,1285877738,SAINT MARY HOSPITAL,Children's Rehabilitation Hospital,283XC2000X,79 POST AVE,NEW YORK,NY,10034,9177431613,40.8637822,-73.9217997
691efe51a095716360cd19ce,1a294d56-d9dc-4438-86fc-6d1372ac7c5b,1144463605,LENOX HILL HOSPITAL,Special Hospital,284300000X,130 E 77TH ST FL 11,NEW YORK,NY,10075,2124342710,40.7736341,-73.9608439
691efe51a095716360cd19cf,82176431-ff1f-4e6d-92dc-a424afa349e9,1396989299,NEWYORK-PRESBYTERIAN HOSPITAL,General Acute Care Hospital,282N00000X,1051 RIVERSIDE DR BOX 94,NEW YORK,NY,10032,3143234152,40.8426267,-73.94455549999999
691efe51a095716360cd19d0,5d460e1d-7bb1-44a7-b5d8-7bd9e7e62134,1427292135,NEW YORK UNIVERSITY LANGONE MEDICAL CENTER,Chronic Disease Hospital,281P00000X,"550 FIRST AVE. NYU LANGONE MEDICAL CENTER,",NEW YORK,NY,10016,2122635506,40.7421225,-73.9739642
691efe51a095716360cd19d1,b149c115-c3e2-41cd-b26a-8165d4908c3b,1699919902,MT. SINAI SCHOOL OF MEDICINE,General Acute Care Hospital,282N00000X,1249 PARK AVE APT. 3G,NEW YORK,NY,10029,9549938749,40.7868651,-73.9517565
691efe51a095716360cd19d2,326af06f-5461-4e34-919b-f3d0d0486677,1689800120,MPC,Psychiatric Hospital,283Q00000X,600 EAST 125 ST. WARDS ISLAND COMPLEX,NEW YORK,NY,10035,6466726477,40.7891393,-73.9298302
691efe51a095716360cd19d3,0fe8299b-d145-4f4c-9864-9888c219c48d,1790912640,NEW YORK PRESBYTERIAN HOSPITAL,General Acute Care Hospital,282N00000X,1320 YORK AVE APT 18D,NEW YORK,NY,10021,3215145231,40.7658261,-73.9541476
691efe51a095716360cd19d4,4a61f44b-ad3b-462f-b7e6-c807c1602df3,1508094418,BETH ISRAEL MEDICAL CENTER,General Acute Care Hospital,282N00000X,10 UNION SQ E SUITE 3M,NEW YORK,NY,10003,2128446810,40.7347943,-73.98953209999999
691efe51a095716360cd19d5,17bc763e-9846-4387-8986-fb975231ce80,1396975090,THE MOUNT SINAI HOSPITAL,General Acute Care Hospital,282N00000X,1249 PARK AVE APT. 12 D,NEW YORK,NY,10029,7347178689,40.7868651,-73.9517565
691efe51a095716360cd19d6,f0f01049-9f20-48ef-8535-30b8f508b92d,1366672933,MOUNT SINAI MEDICAL CENTER,General Acute Care Hospital,282N00000X,5 E 98TH ST 5TH FLOOR,NEW YORK,NY,10029,2122413288,40.7890717,-73.9538601
691efe51a095716360cd19d7,2ccc27ce-599f-4eba-9a67-8e83bf308de1,1629200035,MSKCC,Special Hospital,284300000X,1275 YORK AVE,NEW YORK,NY,10065,2126393210,40.7644262,-73.9569173
691efe51a095716360cd19d8,10cd635c-64c8-4f0c-b470-7ce43afbd033,1063645398,ST. VINCENT'S CATHOLIC MEDICAL CENTER,General Acute Care Hospital,282N00000X,153 W 11TH ST,NEW YORK,NY,10011,2126047000,40.7364656,-74.00052529999999
691efe51a095716360cd19d9,fe33adba-1a14-42fc-ad47-9b054bf0d90c,1639402456,THE MOUNT SINAI MEDICAL CENTER,General Acute Care Hospital,282N00000X,1 GUSTAVE L LEVY PL,NEW YORK,NY,10029,2122415871,40.7901411,-73.95381929999999
691efe51a095716360cd19da,96bf0e2f-642c-4677-8731-f50f2afbc685,1457685208,NEW YORK PRESBYTERIAN HOSPITAL,General Acute Care Hospital,282N00000X,525 E 68TH ST ROOM F1401G,NEW YORK,NY,10065,2127461677,40.7648658,-73.9539836
691efe51a095716360cd19db,8a0c0dd7-7d8e-474d-acb5-b14bfa303e5b,1811221245,NYU LANGONE MEDICAL CENTER,General Acute Care Hospital,282N00000X,560 1ST AVE TISCH 8W,NEW YORK,NY,10016,2122630593,40.7428178,-73.97390469999999
691efe51a095716360cd19dc,69d7d875-173b-46a4-8093-7bb4e2857f0e,1497080923,MORGAN STANLEY CHILDREN'S HOSPITAL OF NEW YORK,Children's Hospital,282NC2000X,3959 BROADWAY CHN 517,NEW YORK,NY,10032,2123055880,40.8398048,-73.9414011
691efe51a095716360cd19dd,33a0d31b-d74a-4558-830d-850ca1fb8e34,1578899878,NYU LANGONE MEDICAL CENTER,General Acute Care Hospital,282N00000X,550 1ST AVE,NEW YORK,NY,10016,2122637300,40.7420165,-73.9736533
691efe51a095716360cd19de,d58863e7-8792-44c0-90d8-a28984d1b280,1386972008,MOUNT SINAI MEDICAL CENTER,General Acute Care Hospital,282N00000X,5 EAST 95TH ST 12TH FLOOR,NEW YORK,NY,10029,2126598086,40.7870424,-73.9555105
691efe51a095716360cd19df,6af76377-6029-49ee-9266-32f51b95c7af,1053649509,HARLEM HOSPITAL,General Acute Care Hospital,282N00000X,506 LENOX AVE,NEW YORK,NY,10037,1212939100,40.8146069,-73.9392886
691efe51a095716360cd19e0,eda14042-03b9-4016-8ce7-df4b05528732,1235468885,ST. VINCENT'S CATHOLIC MEDICAL CENTER,General Acute Care Hospital,282N00000X,170 W 12TH ST,NEW YORK,NY,10011,8453047575,40.7369108,-74.00031109999999
691efe51a095716360cd19e1,3d06c22a-771d-43ef-b213-36b90d3e26e0,1588994891,THE NEW YORK AND PRESBYTERIAN HOSPITAL,General Acute Care Hospital,282N00000X,534 W 135TH ST RM 135,NEW YORK,NY,10031,2124912326,40.8196664,-73.95467239999999
691efe51a095716360cd19e2,9401675f-efde-4e0f-adf3-c8dc2845e92f,1699006478,HARLEM HOSPITAL CENTER,General Acute Care Hospital,282N00000X,210 E 102ND ST APT 13H,NEW YORK,NY,10029,9174707040,40.78838340000001,-73.9463919
691efe51a095716360cd19e3,2051e408-71c4-4569-80b9-51f79ad58ed4,1881926426,ST.LUKES-ROOSEVELT HOSPITAL,General Acute Care Hospital,282N00000X,1000 10TH AVE # 2T,NEW YORK,NY,10019,2126363600,40.7698575,-73.9871801
691efe51a095716360cd19e4,c32a366f-e450-4612-88fb-5fe8ab6409b7,1811229206,LONG ISLAND COLLEGE HOSPITAL,Psychiatric Hospital Unit,273R00000X,444 E 57TH ST,NEW YORK,NY,10022,2122238181,40.7573979,-73.9614351
691efe51a095716360cd19e5,04122e6f-a0fe-4bd7-b449-132b08b949e4,1881926004,ST VINCENT CATHOLIC MEDICAL CENTERS,General Acute Care Hospital,282N00000X,170 W 12TH ST,NEW YORK,NY,10011,2126048935,40.7369108,-74.00031109999999
691efe51a095716360cd19e6,4e4a19bd-eca4-4227-9978-ebc8406939a5,1912220153,NYU HOSPITAL FOR JOINT DISEASES,Chronic Disease Hospital,281P00000X,300 E 17TH ST,NEW YORK,NY,10003,2125986534,40.7341786,-73.983477
691efe51a095716360cd19e7,2c810799-f396-4c25-9407-f7bb8a8b0061,1255654463,MSKCC,Special Hospital,284300000X,160 E 53RD ST,NEW YORK,NY,10022,2126100117,40.7578557,-73.9700168
691efe51a095716360cd19e8,fc98593e-71b5-45dd-9b0d-c43ad2a3e1c5,1730404468,BELLEVUE HOSPITAL CENTER,General Acute Care Hospital,282N00000X,452 1ST AVE,NEW YORK,NY,10016,2125620000,40.7391684,-73.976467
691efe51a095716360cd19e9,075e31d7-8d1e-453d-9527-f3bb714af8d9,1972828564,NEW YORK PRESBYTERIAN HOSPITAL,General Acute Care Hospital,282N00000X,525 E 68TH ST # 140 DEPARTMENT OF PSYCHIATRY,NEW YORK,NY,10065,2127463720,40.764341,-73.95409409999999
691efe51a095716360cd19ea,12c14340-2421-4bf6-8f39-355ecfde3af1,1609193309,BETH ISRAEL MEDICAL CENTER,General Acute Care Hospital,282N00000X,350 E 17TH STREET 18TH FLOOR DEPARTMENT OF NEPHROLOGY,NEW YORK,NY,10003,2124204063,40.7331694,-73.98158649999999
691efe51a095716360cd19eb,bcfc57d3-4b96-453f-b443-caaa0f91b1ef,1457678872,NYU SCHOOL OF MEDICINE,Rehabilitation Hospital,283X00000X,400 E 34TH ST,NEW YORK,NY,10016,2122636037,40.7432925,-73.9729025
691efe51a095716360cd19ec,445100e9-aecc-41ba-838e-3eb5b2c6bbbf,1750608998,NYP COLUMBIA,Psychiatric Hospital Unit,273R00000X,4588 BROADWAY 622 WEST 168TH ST,NEW YORK,NY,10040,2123425797,40.8394928,-73.9360395
691efe51a095716360cd19ed,004b8c28-a0fe-48f4-9b66-5e5269b98611,1396062352,NEW YORK PRESBYTERIAN HOSPITAL,General Acute Care Hospital,282N00000X,177 FORT WASHINGTON AVE FLOOR 6,NEW YORK,NY,10032,2123423882,40.8415162,-73.9429931
691efe51a095716360cd19ee,535cc7a7-eee7-4ebb-b61a-fdd7c47bf461,1316265671,ST. LUKES - ROOSEVELT HOSPITAL,General Acute Care Hospital,282N00000X,1000 10TH AVE,NEW YORK,NY,10019,2125234330,40.770024,-73.9874562
691efe51a095716360cd19ef,70cb5791-0c1e-4466-9656-21cf9ea86f47,1710206560,RICHMOND UNIVERSITY MEDICAL CENTER,Medicare Defined Swing Bed Hospital Unit,275N00000X,22 RIVER TER APT 1F,NEW YORK,NY,10282,7188121492,40.7172998,-74.0158823
691efe51a095716360cd19f0,8ccd7d6e-71a6-4040-b0b3-e482dd22c4f3,1952621633,BETH ISRAEL MEDICAL CENTER,General Acute Care Hospital,282N00000X,40 WATERSIDE PLZ APT 8L,NEW YORK,NY,10010,8472129874,40.7377931,-73.97362509999999
691efe51a095716360cd19f1,6bc1254e-45b2-4f14-8421-3e074331eef6,1255652871,BELLEVUE HOSPITAL CENTER,Psychiatric Hospital,283Q00000X,462 1ST AVE,NEW YORK,NY,10016,2122636219,40.7388717,-73.9752894
691efe51a095716360cd19f2,6c669b57-90be-4482-98b4-e7665c3d24fc,1902118003,NEW YORK LANGONE MEDICAL CENTER,General Acute Care Hospital,282N00000X,"560 1ST AVE NURSING OFFICE, TH 183",NEW YORK,NY,10016,2122637411,40.7428178,-73.97390469999999
691efe51a095716360cd19f3,125e4196-2987-4be1-9f15-4e0d37e81780,1083926786,CGB SPEECH-LANGUAGE PATHOLOGY SERVICES,Rehabilitation Hospital,283X00000X,50 W 96TH ST SUITE 7D,NEW YORK,NY,10025,2122229520,40.7921368,-73.9661722
691efe51a095716360cd19f4,5b041f97-b588-452f-b57f-421f4d3dc266,1235442518,MEMORIAL SLOAN KETTERING CANCER CENTER,Chronic Disease Hospital,281P00000X,303 E 60TH ST APT 34I,NEW YORK,NY,10022,9179162903,40.7613541,-73.96318420000001
691efe51a095716360cd19f5,c36d6f91-e298-4186-95cb-fdb5e331f410,1215240148,ST. LUKE'S ROOSEVELT HOSPITAL,Special Hospital,284300000X,319 E 50TH ST APARTMENT 9E,NEW YORK,NY,10022,9732559819,40.754762,-73.967511
691efe51a095716360cd19f6,89173c19-1443-4c9d-867d-f0afbf4f4834,1346553880,ST LUKES ROOSEVELT,General Acute Care Hospital,282N00000X,10 AMSTERDAM AVENUE,NEW YORK,NY,10023,2014584809,40.7708733,-73.9875364
691efe51a095716360cd19f7,b09d0bc9-7c49-4fa9-8122-2c22a469f1a6,1912212366,BELLEVUE HOPITAL,General Acute Care Hospital,282N00000X,462 1ST AVE,NEW YORK,NY,10016,2125625762,40.7388717,-73.9752894
691efe51a095716360cd19f8,b1afc856-a626-4b49-a44b-9e3427908651,1619282431,BELLEVUE HOSPITAL CENTER HHC,General Acute Care Hospital,282N00000X,462 1ST AVE,NEW YORK,NY,10016,1212562414,40.7388717,-73.9752894
691efe51a095716360cd19f9,31e81fc5-8f34-43e4-8f0a-e8e39ba76aca,1467768002,MEMORIAL SLOAN KETTERING CANCER CENTER,Critical Access Hospital,282NC0060X,1275 YORK AVE,NEW YORK,NY,10065,2126392000,40.7644262,-73.9569173
691efe51a095716360cd19fa,89145188-f6e4-4652-83c5-a58e1ad2c421,1770890410,MOUNT SINAI HOSPITAL EARLY INTERVENTION,General Acute Care Hospital,282N00000X,1 GUSTAVE L LEVY PL # 6000,NEW YORK,NY,10029,2127313752,40.7901411,-73.95381929999999
691efe51a095716360cd19fb,7823a53b-317c-43c9-8c2a-e1191ce32a4f,1851609796,MOUNT SINAI HOSPITAL,General Acute Care Hospital,282N00000X,320 E 94TH ST,NEW YORK,NY,10128,2124232976,40.782333,-73.9471949
691efe51a095716360cd19fc,4298530e-49d6-4010-afee-1a00f6be5b45,1598073173,THE COLUMBIA UNIVERSITY CLINIC FOR ANXIETY AND RELATED DISORDERS,Psychiatric Hospital,283Q00000X,3 COLUMBUS CIR SUITE 1425,NEW YORK,NY,10019,2122465740,40.7669152,-73.9822123
691efe51a095716360cd19fd,2d675e31-7bf9-4f99-a818-76f6c60053a8,1104135060,MOUNT SINAI SCHOOL OF MEDICINE OF NEW YORK UNIVERSITY,General Acute Care Hospital,282N00000X,1 GUSTAVE L LEVY PL BOX # 1621,NEW YORK,NY,10029,2127317895,40.7901411,-73.95381929999999
691efe51a095716360cd19fe,55e813a0-597c-4bf3-aad1-cf11340a2255,1740599570,NEW YORK STATE PSYCHIATRIC INSTITUTE,Psychiatric Hospital,283Q00000X,504 W 136TH ST APT 6-C,NEW YORK,NY,10031,1646623779,40.819634,-73.9524675
691efe51a095716360cd19ff,30fc10a4-2215-4954-af42-8a202cd742d8,1093015638,ST. LUKES ROOSEVELT HOSPITAL - INN,General Acute Care Hospital,282N00000X,"515 W, 59TH ST., APT 4A",NEW YORK,NY,10019,9174022471,40.7710254,-73.9884383
691efe51a095716360cd1a00,a3158dec-0a53-4500-9787-499c0222c97d,1154622298,NEW YORK PRESBYTERIAN HOSPITAL - WEILL CORNELL,General Acute Care Hospital,282N00000X,525 E 68TH ST,NEW YORK,NY,10065,2127461584,40.7648658,-73.9539836
691efe51a095716360cd1a01,c2735217-fb04-4ec8-87fb-3f9d4b37a5fc,1336441559,MOUNT SINAI HOSPITAL,General Acute Care Hospital,282N00000X,1 GUSTAVE L LEVY PL,NEW YORK,NY,10029,2128248100,40.7901411,-73.95381929999999
691efe51a095716360cd1a02,2e3d29b9-2c5b-4f07-8248-70583f078a9e,1487956983,LENOX HILL HOSPITAL,Psychiatric Hospital,283Q00000X,210 E 64TH ST,NEW YORK,NY,10065,2127027305,40.7640723,-73.9633151
691efe51a095716360cd1a03,4d06a7a7-f5b7-4acb-8b3a-cc3eb4c23597,1053614966,NEW YORK SOCIETY FOR THE RELIEF OF THE RUPTURED AND CRIPPLED MAINTAINI,Special Hospital,284300000X,535 E 70TH ST,NEW YORK,NY,10021,2126061268,40.765048,-73.9529124
691efe51a095716360cd1a04,8aab502d-ac19-4fbd-9de3-454eae0b9596,1083918221,NY PRESBYTERIAN HOSPITAL - CORNELL,Long Term Care Hospital,282E00000X,525 E 68TH ST BOX 207,NEW YORK,NY,10065,2127465380,40.7648658,-73.9539836
691efe51a095716360cd1a05,575803f4-1331-42cf-8bd7-4f56952a0c2a,1114221843,MEMORIAL SLOAN KETTERING,Chronic Disease Hospital,281P00000X,303 E 60TH ST APT. 28E,NEW YORK,NY,10022,6465889695,40.7613541,-73.96318420000001
691efe51a095716360cd1a06,df670d5d-b051-4c9d-8820-eda621ddca62,1538463278,MEMORIAL SLOAN KETTERING CANCER CENTER,Special Hospital,284300000X,1275 YORK AVE,NEW YORK,NY,10065,9179029758,40.7644262,-73.9569173
691efe51a095716360cd1a07,762a4d94-63f1-4cde-a4c4-cbed73c1b589,1053615724,METROPOLITAN HOSPITAL,General Acute Care Hospital,282N00000X,1901 1ST AVE,NEW YORK,NY,10029,2124236597,40.7852328,-73.94502899999999
691efe51a095716360cd1a08,795f1392-540e-4398-8648-6c8bb5d7e7dd,1295030781,THE MOUNT SINAI HOSPITAL,Psychiatric Hospital,283Q00000X,1425 MADISON AVE L4-46,NEW YORK,NY,10029,1917658021,40.7886376,-73.9524223
691efe51a095716360cd1a09,79cc9ffa-e76b-4219-80c0-a456e0d8cb19,1154626364,MOUNT SINAI HOSPITAL,General Acute Care Hospital,282N00000X,1 GUSTAVE L LEVY PL,NEW YORK,NY,10029,2122416500,40.7901411,-73.95381929999999
691efe51a095716360cd1a0a,adbaab39-65c5-4ead-be52-888a9b6e4ec4,1922304583,NEW YORK PRESBYTERIAN,General Acute Care Hospital,282N00000X,525 EAST 68TH STREET,NEW YORK,NY,10065,2127566767,40.7648658,-73.9539836
691efe51a095716360cd1a0b,e7976b48-cd9b-4bfc-b773-0eea7e29c12c,1811293301,OBGYN ASSOCIATES OF ST LUKES ROOSEVELT HOSPITAL,General Acute Care Hospital,282N00000X,1000 10TH AVE,NEW YORK,NY,10019,2125233348,40.770024,-73.9874562
691efe51a095716360cd1a0c,daaf57b7-1e78-496c-ae47-b3c8dec16cf9,1720384969,NEW YORK PRESBYTERIAN WEILL CENTER,General Acute Care Hospital,282N00000X,525 E 68TH ST,NEW YORK,NY,10065,6467461527,40.7648658,-73.9539836
691efe51a095716360cd1a0d,d151fc50-60d3-4393-b520-9bd0a93f8faa,1538458252,NYU LANGONE MEDICAL CENTER,Special Hospital,284300000X,660 1ST AVE,NEW YORK,NY,10016,2122636246,40.7460052,-73.9715222
691efe51a095716360cd1a0e,f2aff2d1-69c4-488e-82e7-74a125a6f549,1578853925,BELLEVUE HOSPITAL CENTER,General Acute Care Hospital,282N00000X,462 FIRST AVENUE BELLEVUE HOSPITAL CENTER-DEPARTMENT OF SOCIAL WORK,NEW YORK,NY,10016,2125622644,40.7396865,-73.9762044
691efe51a095716360cd1a0f,34662096-12e9-4e15-81ee-f824bf5bd089,1730470246,NYC HEALTH & HOSPITALS CORPORATION,Psychiatric Hospital,283Q00000X,1901 1ST AVE ROOM #3M4,NEW YORK,NY,10029,2124237110,40.7852328,-73.94502899999999
691efe51a095716360cd1a10,7f60dfec-4f26-4458-922e-e058fc8d4cd9,1376835819,NYCHHC,Psychiatric Hospital,283Q00000X,1901 1ST AVE,NEW YORK,NY,10029,2124237109,40.7852328,-73.94502899999999
691efe51a095716360cd1a11,c8c78537-fe10-481e-b579-52b8a35f9876,1033401476,NEW YORK CITY HEALTH AND HOSPITALS CORPORATION,Psychiatric Hospital Unit,273R00000X,1901 1ST AVE ROOM 6M28,NEW YORK,NY,10029,2124236751,40.7852328,-73.94502899999999
691efe51a095716360cd1a12,554c1720-43e7-4d1d-8a62-6d6795b42892,1225320674,NY SOCIETY FOR THE RELIEF OF THE RUPTURED AND CRIPPLED MAINTAINING THE,Special Hospital,284300000X,535 E 70TH ST,NEW YORK,NY,10021,2127742004,40.765048,-73.9529124
691efe51a095716360cd1a13,011e2eb1-13c9-4618-b8be-d225d7cd2f71,1407148000,NEW YORK PRESBYTERIAN HOSPITAL,Special Hospital,284300000X,"177 FORT WASHINGTON AVE 6TH FLOOR, CENTER ROOM 12",NEW YORK,NY,10032,2123052913,40.8414253,-73.9430868
691efe51a095716360cd1a14,a4c45ac9-d482-408f-92fd-66331986ab73,1457644882,MOUNT SINAI,General Acute Care Hospital,282N00000X,5 E 98TH ST BOX 1188,NEW YORK,NY,10029,6463871517,40.7889691,-73.9538996
691efe51a095716360cd1a15,339cc78d-bce9-4d15-9f3a-2181e4e51902,1093009755,NYULMC,General Acute Care Hospital,282N00000X,560 1ST AVE,NEW YORK,NY,10016,2122637000,40.7428178,-73.97390469999999
691efe51a095716360cd1a16,890cef34-4423-4892-8a1d-d56d31ba0c0b,1669766770,COLUMBIA PRESBYTERIAN HOSPITAL,General Acute Care Hospital,282N00000X,610 W 158TH ST,NEW YORK,NY,10032,2125441881,40.834819,-73.9452309
691efe51a095716360cd1a17,49759acb-eddf-4b0d-9a3c-557a60370bc6,1295029346,ST. LUKE'S ROOSEVELT HOSPITAL CENTER,General Acute Care Hospital,282N00000X,1111 AMSTERDAM AVE,NEW YORK,NY,10025,9083425117,40.8054067,-73.96133069999999
691efe51a095716360cd1a18,2cd49da7-3542-4d9e-92c7-43b5bf490d9d,1740569961,MEMORIAL SLOAN KETTERING CANCER CENTER,Special Hospital,284300000X,303 E 60TH ST APT. 36G,NEW YORK,NY,10022,6465272564,40.7613541,-73.96318420000001
691efe51a095716360cd1a19,a3b36af4-a1fe-4126-9c7a-89403c6358e3,1366721672,MOUNT SINAI MEDICAL CENTER,Psychiatric Hospital Unit,273R00000X,1 GUSTAVE L LEVY PL,NEW YORK,NY,10029,2122417175,40.7901411,-73.95381929999999
691efe51a095716360cd1a1a,3e41ccfe-fc7a-4c56-99b7-17ee7db06368,1669752739,SPOTS,Rehabilitation Hospital Unit,273Y00000X,611 BROADWAY #908,NEW YORK,NY,10012,2124730011,40.7258311,-73.9968847
691efe51a095716360cd1a1b,2e19757b-0f37-463a-872e-8f96fd7ef39b,1972884260,NEW YORK-PRESBYTERIAN HOSPITAL,General Acute Care Hospital,282N00000X,1300 YORK AVE C302,NEW YORK,NY,10065,2127462832,40.7649212,-73.9549208
691efe51a095716360cd1a1c,ab3297ff-ca16-4127-abf8-4d3b61c9c805,1649551896,WEILL CORNELL MEDICAL COLLEGE,General Acute Care Hospital,282N00000X,1305 YORK AVE 5TH FLOOR,NEW YORK,NY,10021,6469623681,40.7652979,-73.9546692
691efe51a095716360cd1a1d,2a3c8f6e-e5ee-4d4b-9a84-827e4d49866f,1750663639,MOUNT SINAI MEDICAL CENTER,General Acute Care Hospital,282N00000X,1 GUSTAVE L LEVY PL,NEW YORK,NY,10029,2122411685,40.7901411,-73.95381929999999
691efe51a095716360cd1a1e,7aa62b4b-f991-493a-8c23-773748dab5f6,1679857882,NEW YORK AND PRESBYTERIAN HOSPITAL,General Acute Care Hospital,282N00000X,10 RIVER RD APT 6H,NEW YORK,NY,10044,6462868764,40.7648139,-73.9473867
691efe51a095716360cd1a1f,d24583e2-722d-40b1-85ab-27eb8269f674,1144504044,THE NEW YORK AND PRESBYTERIAN HOSPITAL,General Acute Care Hospital,282N00000X,525 E 68TH ST,NEW YORK,NY,10065,2123058000,40.7648658,-73.9539836
691efe51a095716360cd1a20,4b1c2729-05a2-45b5-aab2-a898415dcd37,1386929958,LENOX HILL HOSPITAL,Special Hospital,284300000X,100 E 77TH ST,NEW YORK,NY,10075,2077496383,40.7737506,-73.96082410000001
691efe51a095716360cd1a21,4facffe1-7e06-491e-ab9d-ea9f6e29af83,1437426905,NEW YORK UNIVERSITY LANGONE MEDICAL CENTER,Long Term Care Hospital,282E00000X,425 E 114TH ST APT 4FW,NEW YORK,NY,10029,6462263890,40.7943486,-73.9350523
691efe51a095716360cd1a22,94418136-88ea-4de6-b98b-1bbbe3fbac11,1295003390,HOSPITAL FOR SPECIAL SURGERY,Special Hospital,284300000X,"430 E, 63RD STREET, #4L",NEW YORK,NY,10065,8326917672,40.7615244,-73.9596547
691efe51a095716360cd1a23,5bb58d74-8117-49d9-afad-3691a619e3f4,1346512134,MOUNT SINAI HOSPITAL,General Acute Care Hospital,282N00000X,1 GUSTAVE L LEVY PL BOX 1067,NEW YORK,NY,10029,2122419321,40.7901411,-73.95381929999999
691efe51a095716360cd1a24,fb125db0-8158-4d9c-9152-5e113c1a7ff1,1962777847,METROPOLITAN HOSPITAL,General Acute Care Hospital,282N00000X,1901 1ST AVE,NEW YORK,NY,10029,2124236262,40.7852328,-73.94502899999999
691efe51a095716360cd1a25,8e9792fd-32b0-414b-a8dc-9fda9b4c3e1d,1104191766,NEW YORK SOCIETY FOR THE RELIEF OF THE RUPTURED AND CRIPPLED MAINTAINI,Special Hospital,284300000X,535 EAST 70TH STREET ATT: ED RANDAZZO BELAIRE 11K,NEW YORK,NY,10021,2127722004,40.765048,-73.9529124
691efe51a095716360cd1a26,3247e1f1-5eef-434f-947b-dd3ba518a83f,1851666408,BETH ISRAEL MEDICAL CENTER,General Acute Care Hospital,282N00000X,281 1ST AVE,NEW YORK,NY,10003,2124202000,40.7328669,-73.9817051
691efe51a095716360cd1a27,792266d6-df93-43f6-a8bb-56ef08158f5b,1700152774,HOSPITAL,General Acute Care Hospital,282N00000X,170 WILLIAM STREET,NEW YORK,NY,10038,2123125000,40.7101668,-74.0048564
691efe51a095716360cd1a28,44933c9a-5f33-4bfb-933e-c446623493bf,1760758486,HOSPITAL FOR SPECIAL SURGERY,Special Hospital,284300000X,400 E 71ST ST APT 7R,NEW YORK,NY,10021,6822249808,40.7667674,-73.95619479999999
691efe51a095716360cd1a29,73d0fd5e-7bf1-4f79-815c-3d9ea782cd71,1366708018,LENOX HILL HOSPITAL,General Acute Care Hospital,282N00000X,130 E 77TH ST 4TH FLOOR,NEW YORK,NY,10075,2124343000,40.7736341,-73.9608439
691efe51a095716360cd1a2a,ce8a74d1-5577-4e7a-9bde-1b0faf951d2e,1922365915,ICAHN SCHOOL OF MEDICINE AT MOUNT SINAI,General Acute Care Hospital,282N00000X,1 GUSTAVE L LEVY PLACE,NEW YORK,NY,10029,2122419065,40.7901411,-73.95381929999999
691efe51a095716360cd1a2b,db8941b5-331c-47f3-a8b2-3580051636e7,1730448317,NYU LANGONE MEDICAL CENTER,General Acute Care Hospital,282N00000X,660 1ST AVE,NEW YORK,NY,10016,2122633471,40.7460052,-73.9715222
691efe51a095716360cd1a2c,c6cc98e4-4d85-4757-a30c-d41c3fc7da9a,1972863249,NYU LANGONE MEDICAL CENTER,Special Hospital,284300000X,550 1ST AVE,NEW YORK,NY,10016,2122630667,40.7420165,-73.9736533
691efe51a095716360cd1a2d,edf75266-27cf-43ec-816b-4d91f94ad8b8,1558621698,MANHATTAN VETERANS AFFAIRS,Critical Access Hospital,282NC0060X,91 CENTRAL PARK W APT.3F,NEW YORK,NY,10023,2126867500,40.7744358,-73.9774666
691efe51a095716360cd1a2e,13facfe7-18e8-455b-88c0-25bd73b4d266,1558622381,NYU MEDICAL CENTER,General Acute Care Hospital,282N00000X,530 FIRST AVENUE SUITE9V,NEW YORK,NY,10016,2122633277,40.7420311,-73.9743163
691efe51a095716360cd1a2f,147c3825-3220-4f1f-b4dc-ab7de7e7ed98,1295098739,MEMORIAL SLOAN KETTERING CANCER CENTER,Special Hospital,284300000X,1250 1ST AVE,NEW YORK,NY,10065,2126395208,40.7647997,-73.95778229999999
691efe51a095716360cd1a30,c8ebfa8b-1757-4d44-b75e-b00dc92cbd7f,1427313840,THE ANIMAL MEDICAL CENTER,Special Hospital,284300000X,510 E 62ND ST,NEW YORK,NY,10065,2128388100,40.7601906,-73.9578128
691efe51a095716360cd1a31,127c3b54-fa7e-44af-8a74-6194dcbb29a9,1205181120,HOSPITAL FOR SPECIAL SURGERY- NP,Special Hospital,284300000X,535 E 70TH ST ATT: WALTER WENCAK,NEW YORK,NY,10021,2126061398,40.765048,-73.9529124
691efe51a095716360cd1a32,b106ab9c-7462-437e-9e93-da4599f0d0e5,1790031797,NYU LANGONE MEDICAL CENTER/ RUSK INSTITUTE OF REHABILITATION MEDICINE,Rehabilitation Hospital,283X00000X,400 E 34TH ST RM 515,NEW YORK,NY,10016,2122636013,40.7432925,-73.9729025
691efe51a095716360cd1a33,fe7b8bca-314a-46f6-8c95-a2fd17147df4,1922355353,METROPOLITAN HOSPITAL,General Acute Care Hospital,282N00000X,1901 1ST AVE,NEW YORK,NY,10029,5712285068,40.7852328,-73.94502899999999
691efe51a095716360cd1a34,986d0dc7-c22e-47f9-8146-4cf0dfd7a6eb,1750638250,HARLEM HOSPITAL,General Acute Care Hospital,282N00000X,506 LENOX AVENUE DENTAL DEPARTMENT,NEW YORK,NY,10037,2129392895,40.8141451,-73.9404473
691efe51a095716360cd1a35,8c9356b0-97e0-43a3-aedd-4b0057c1d1f5,1417205931,HARLEM HOSPITAL,Critical Access Hospital,282NC0060X,"506 LENOX AVENUE, 14TH FLOOR, ROOM 106",NEW YORK,NY,10037,2129392291,40.8141451,-73.9404473
691efe51a095716360cd1a36,395afe9e-00fc-4f4c-90b8-9645f090e8fe,1447508668,BELLEVUE HOSPITAL CENTER,Psychiatric Hospital Unit,273R00000X,462 1ST AVE,NEW YORK,NY,10016,2122636219,40.7388717,-73.9752894
691efe51a095716360cd1a37,8106f420-30d0-4917-9788-2704397ca031,1992053946,HARLEM HOSPITAL CENTER,Psychiatric Hospital,283Q00000X,506 LENOX AVE 9TH FLOOR,NEW YORK,NY,10037,2129392576,40.8146069,-73.9392886
691efe51a095716360cd1a38,bd570620-fb5a-4051-ab81-85979d8b7441,1922358019,NY PRESBYTERIAN HOSPITAL-COLUMBIA UNIVERSITY MEDICAL CENTER,Children's Hospital,282NC2000X,3959 BROADWAY,NEW YORK,NY,10032,5163685092,40.8398048,-73.9414011
691efe51a095716360cd1a39,700308b6-c43b-48da-baaa-fc4865c1f892,1962752840,METROPOLITAN HOSPITAL CENTER,General Acute Care Hospital,282N00000X,1762 1ST AVE APT 4S,NEW YORK,NY,10128,6465152050,40.7802574,-73.94659659999999
691efe51a095716360cd1a3a,33bbd1e2-b11e-49c4-b907-aa40a060efca,1497006258,MEMORIAL SLOAN KETTERING CANCER CENTER,Special Hospital,284300000X,1275 YORK AVE,NEW YORK,NY,10065,2126392000,40.7644262,-73.9569173
691efe51a095716360cd1a3b,c5c6a2e2-c04f-4c17-a64e-513297ac599d,1508117599,NEW YORK PRESBYTERIAN HOSPITAL,General Acute Care Hospital,282N00000X,525 E 68TH ST,NEW YORK,NY,10065,2127464209,40.7648658,-73.9539836
691efe51a095716360cd1a3c,9ea82ec0-9ffa-4a91-91b2-e5f965fb2690,1093066011,NEW YORK CITY HEALTH HOSPTIAL CORPORATION,Children's Hospital,282NC2000X,1901 1ST AVE STE 6M22,NEW YORK,NY,10029,2124236751,40.7852328,-73.94502899999999
691efe51a095716360cd1a3d,4c1be690-0407-4ea2-a358-7273562efee3,1720330616,MEMORIAL SLOAN KETTERING CANCER CENTER,Children's Hospital,282NC2000X,1275 YORK AVE,NEW YORK,NY,10065,2126392000,40.7644262,-73.9569173
691efe51a095716360cd1a3e,947e60a1-5f03-45ac-8028-f6f410c0ea17,1225381890,NEW YORK CITY HEALTH AND HOSPITAL CORPORATION,Children's Hospital,282NC2000X,1901 1ST AVE,NEW YORK,NY,10029,2124236961,40.7852328,-73.94502899999999
691efe51a095716360cd1a3f,4440148e-4ad9-4efc-9e63-d51d804333c0,1568706778,NEW YORK SOCIETY FOR THE RELIEF OF THE RUPTURED & CRIPPLED MAINTAINING,Special Hospital,284300000X,535 E 70TH ST,NEW YORK,NY,10021,2127742507,40.765048,-73.9529124
691efe51a095716360cd1a40,6d4b3fa1-f0a7-4ba1-930b-c3eb40f94ed3,1609112879,NEW YORK DOWNTOWN HOSPITAL,General Acute Care Hospital,282N00000X,83 GOLD ST,NEW YORK,NY,10038,3122125400,40.7103086,-74.0050016
691efe51a095716360cd1a41,1d4bffdd-e1d6-4e71-83cd-45c327c7038b,1669718615,METROPOLITAN HOSPITAL CENTER,Women's Hospital,282NW0100X,1901 1ST AVE,NEW YORK,NY,10029,2124237012,40.7852328,-73.94502899999999
691efe51a095716360cd1a42,4c3b2454-ab3c-4dd7-b31d-c8489b573554,1487990222,METROPOLITAN HOSPITAL CENTER,Long Term Care Hospital,282E00000X,1901 1ST AVE METROPOLITAN HOSPITAL CENTER,NEW YORK,NY,10029,2124236262,40.7850202,-73.9448902
691efe51a095716360cd1a43,5c282cf3-9cb9-42d9-a9dc-c793ce2a762f,1295071884,METROPOLITAN HOSPITAL,Psychiatric Hospital,283Q00000X,1901 1ST AVE,NEW YORK,NY,10029,2124236104,40.7852328,-73.94502899999999
691efe51a095716360cd1a44,23be9c2a-ed31-4868-9141-c7d8fecba93f,1164760724,LINCOLN HOSPITAL,General Acute Care Hospital,282N00000X,126 E 83RD ST B5,NEW YORK,NY,10028,8186447063,40.7775437,-73.9575424
691efe51a095716360cd1a45,fa96822d-7749-41d2-9ee7-cd140a0950ba,1801134226,LENOX HILL HOSPITAL,Children's Hospital,282NC2000X,100 E 77TH ST,NEW YORK,NY,10075,2124342565,40.7737506,-73.96082410000001
691efe51a095716360cd1a46,9f704d29-498c-42e1-83da-41bdd0487efc,1174861322,NEW YORK DOWNTOWN HOSPITAL,Women's Hospital,282NW0100X,170 WILLIAM ST DEPT. OF OB/GYN,NEW YORK,NY,10038,3123125880,40.7101668,-74.0048564
691efe51a095716360cd1a47,8adc8c3b-ca9b-4120-bf49-a3462a9209f0,1215278767,MOUNT SINAI HOSPITAL,Rehabilitation Hospital,283X00000X,1 GUSTAVE L LEVY PL,NEW YORK,NY,10029,2122416500,40.7901411,-73.95381929999999
691efe51a095716360cd1a48,3d0a74c6-69b5-40ae-910d-9c080e81a5b8,1619218872,BETH ISRAEL MEDICAL CENTER,General Acute Care Hospital,282N00000X,327 E 17TH ST 1ST AVENUE AT 16,NEW YORK,NY,10003,2124202953,40.7339551,-73.9823318
691efe51a095716360cd1a49,ccf52c5e-029c-4fa5-9ddd-72beb0dcb737,1699016808,METROPOLITAN HOSPITAL,General Acute Care Hospital,282N00000X,1901 1ST AVE,NEW YORK,NY,10029,2124268644,40.7852328,-73.94502899999999
691efe51a095716360cd1a4a,957496e7-5fed-45e8-af58-c6c6d78fe6cc,1588906309,BETH ISRAEL MEDICAL CENTER,General Acute Care Hospital,282N00000X,1ST AVE AT 16TH STREET,NEW YORK,NY,10003,2124202953,40.732686,-73.9816218
691efe51a095716360cd1a4b,1c1c9d46-afbf-4561-b264-e78de2721c5f,1003158304,THE MOUNT SINAI MEDICAL CENTER,Chronic Disease Hospital,281P00000X,1468 MADISON AVE FL 15 BOX1194 PATHOLOGY RESIDENCY PROGRAM,NEW YORK,NY,10029,4095999446,40.7902728,-73.9521681
691efe51a095716360cd1a4c,f35273f4-e96c-484e-a7c6-4281937876e3,1013250174,MOUNT SINAI HOSPITAL,General Acute Care Hospital,282N00000X,"1468 MADISON AVE 15TH FLOOR, BOX 1194",NEW YORK,NY,10029,2122418014,40.7902728,-73.9521681
691efe51a095716360cd1a4d,22aa185e-efa0-4383-ad49-93c357f886f8,1427496652,NEW YORK SOCIETY FOR THE RELIEF OF RUPTURED & CRIPPLED MAINTAINING,Special Hospital,284300000X,535 E 70TH ST HSS DEPARTMENT OF MEDICINE,NEW YORK,NY,10021,2127742507,40.7650795,-73.95302099999999
691efe51a095716360cd1a4e,b80f62dc-21ed-40d3-802b-57d2bfc2e023,1265870190,ICAHN SCHOOL OF MEDICINE AT MOUNT SINAI,Special Hospital,284300000X,ONE GUSTAVE L. LEVY PLACE,NEW YORK,NY,10029,2122414299,40.7888899,-73.9540398
691efe51a095716360cd1a4f,0a04946f-d9e4-44fe-913f-9afa27c4c34b,1144669862,NY PRESBYTERIAN HOSPITAL,General Acute Care Hospital,282N00000X,170 WILLIAM ST,NEW YORK,NY,10038,3476911547,40.7101668,-74.0048564
691efe51a095716360cd1a50,87b2dac0-b31e-4db9-b2cb-1ee5663eb368,1821437906,NEW YORK DOWNTOWN HOSPITAL,General Acute Care Hospital,282N00000X,170 WILLIAM ST,NEW YORK,NY,10038,2123125000,40.7101668,-74.0048564
691efe51a095716360cd1a51,d9a3335f-9e5b-46cc-a2aa-8b888f11c951,1902247620,HOSPITAL FOR JOINT DISEASES,Special Hospital,284300000X,"545 1ST AVE GREENBERG HALL, SC1-081",NEW YORK,NY,10016,6135397739,40.7424439,-73.9749599
691efe51a095716360cd1a52,af06c805-1bf9-4d5e-8b82-8ead75db086d,1629410592,MOUNT SINAI,Critical Access Hospital,282NC0060X,1468 MADISON AVE BOX 1116,NEW YORK,NY,10029,6318248100,40.7902728,-73.9521681
691efe51a095716360cd1a53,bc8a0cd0-908c-4fe2-b4d1-2b0eefeeaec2,1336572924,HARLEM HOSPITAL CENTER,General Acute Care Hospital,282N00000X,506 LENOX AVE DEPARTMENT OF SURGERY,NEW YORK,NY,10037,2129391000,40.8146069,-73.9392886
691efe51a095716360cd1a54,5630a257-6a57-4d21-ba58-e924d9e72ec5,1669805065,METROPOLITAN,Children's Hospital,282NC2000X,1901 1ST AVE PEDIATRICS ROOM 523,NEW YORK,NY,10029,2124237834,40.7852248,-73.944981
691efe51a095716360cd1a55,de6b3eed-f5a0-471e-a301-bc340b021194,1063846780,NEW YORK PRESBYTERIAN,General Acute Care Hospital,282N00000X,516 W 167TH ST APT 14,NEW YORK,NY,10032,2127956189,40.8396898,-73.93860819999999
691efe51a095716360cd1a56,dddc0449-bea3-4e89-afc9-cee28107b95c,1922432590,WEILL CORNELL MEDICAL COLLEGE,General Acute Care Hospital,282N00000X,238 E 81ST ST APT 3B,NEW YORK,NY,10028,6467174809,40.7747273,-73.95473720000001
691efe51a095716360cd1a57,7a93b47b-24e4-412f-8a55-1ed3b9c69b75,1477988707,NEW YORK SOCIETY FOR RELEIF OF THE RUPTURED AND CRIPPLED MAINTAINING,Special Hospital,284300000X,535 E 70TH ST,NEW YORK,NY,10021,2127747598,40.765048,-73.9529124
691efe51a095716360cd1a58,01b21927-9bff-41ba-ad31-1b94b4ba445b,1013343128,METROPOLITAN HOSTPITAL CENTER,General Acute Care Hospital,282N00000X,1901 1ST AVE STE 704,NEW YORK,NY,10029,2124236771,40.7849111,-73.94417419999999
691efe51a095716360cd1a59,e6ce0404-a0ff-432a-90a4-6761270ce99e,1659707461,METROPOLITAN HOSPITAL CENTER,Medicare Defined Swing Bed Hospital Unit,275N00000X,1901 1ST AVE STE 704,NEW YORK,NY,10029,2124236771,40.7849111,-73.94417419999999
691efe51a095716360cd1a5a,e50ad339-054a-4136-9f32-be95740834eb,1972930642,MEMORIAL SLOAN-KETTERING CANCER CENTER,Chronic Disease Hospital,281P00000X,1275 YORK AVE,NEW YORK,NY,10065,2126392000,40.7644262,-73.9569173
691efe51a095716360cd1a5b,5122672c-6f0b-4b8a-855b-94aa341a87ff,1659708865,HHC,General Acute Care Hospital,282N00000X,333 EAST 102 STREET #534 NEW YORK,NEW YORK,NY,10029,6466835249,40.7875193,-73.9426764
691efe51a095716360cd1a5c,04d5705d-0dba-4e74-ad18-426cc1fedb53,1962839852,CORNELL UNIVERSITY MEDICAL COLLEGE,General Acute Care Hospital,282N00000X,575 LEXINGTON AVE 540,NEW YORK,NY,10022,2125905720,40.7572039,-73.9712314
691efe51a095716360cd1a5d,406c45ba-50d7-4dd8-9b4c-e8c57bc46681,1316368830,MEMORIAL SLOAN KETTERING CANCER CENTER,Special Hospital,284300000X,1275 YORK AVE,NEW YORK,NY,10065,2126392000,40.7644262,-73.9569173
691efe51a095716360cd1a5e,821bd9c3-4d7a-4aca-bf39-034ff5aadec8,1760808448,COLUMBIA UNIVERSITY MEDICAL CENTER,Special Hospital,284300000X,161 FORT WASHINGTON AVE FL 6 INTERVENTIONAL CARDIOLOGY,NEW YORK,NY,10032,2123052708,40.8412728,-73.94347189999999
691efe51a095716360cd1a5f,ba90eab4-ac77-47fa-866d-4b6686e04e38,1326464355,MORGAN STANLEY CHILDREN'S HOSPITAL,Children's Hospital,282NC2000X,"3959 BROADWAY, CHN - 1102",NEW YORK,NY,10032,2123420416,40.8398048,-73.9414011
691efe51a095716360cd1a60,5e6691c6-b850-4df7-8464-7043e2ae2ea1,1114345600,HARLEM HOSPITAL CENTER,Critical Access Hospital,282NC0060X,506 LENOX AVE,NEW YORK,NY,10037,2129391641,40.8146069,-73.9392886
691efe51a095716360cd1a61,605358db-9406-432c-a1e9-b73e1a291f5d,1528486917,MOUNT SINAI,Chronic Disease Hospital,281P00000X,1 GUSTAVE L LEVY PL BOX 1187,NEW YORK,NY,10029,2122416728,40.7901411,-73.95381929999999
691efe51a095716360cd1a62,cb2cb3ae-b1a9-453e-abb0-5db2bec07367,1396165437,MOUNT SINAI HOSPITAL,General Acute Care Hospital,282N00000X,ONE GUSTAVE L. LEVY PLACE BOX 1139,NEW YORK,NY,10029,2122416500,40.7888899,-73.9540398
691efe51a095716360cd1a63,0c8473b4-f4ee-4151-84e4-6b2945e669b9,1053721563,THE MOUNT SINAI HOSPITAL,General Acute Care Hospital,282N00000X,1 GUSTAVE L LEVY PL # 6000,NEW YORK,NY,10029,2127313752,40.7901411,-73.95381929999999
691efe51a095716360cd1a64,2833f5e9-2b48-49df-ba8f-7ad6b918fb50,1053723668,METROPOLITAN HOSPITAL CENTER,General Acute Care Hospital,282N00000X,1901 1ST AVE SUITE #704,NEW YORK,NY,10029,1212423677,40.7849111,-73.94417419999999
691efe51a095716360cd1a65,4320960f-af29-4097-8e2f-8da52f025170,1225441710,ST LUKES HOSPITAL,Psychiatric Hospital,283Q00000X,1111 AMSTERDAM AVE,NEW YORK,NY,10025,2122563398,40.8054067,-73.96133069999999
691efe51a095716360cd1a66,21c467bd-50da-4ab0-8bd0-86c88314be02,1356754857,ST LUKES HOSPITAL,Substance Use Disorder Rehabilitation Hospital Unit,276400000X,1111 AMSTERDAM AVE,NEW YORK,NY,10025,2122563398,40.8054067,-73.96133069999999
691efe51a095716360cd1a67,d1633f10-50cb-4582-80d4-89acfcbc3439,1629481106,NEW YORK UNIVERSITY COLLEGE OF DENTISTRY,Children's Hospital,282NC2000X,345 E 24TH ST,NEW YORK,NY,10010,2129989879,40.73792539999999,-73.9784116
691efe51a095716360cd1a68,3c0197de-f287-468d-8997-240598975c79,1447663943,ST LUKES HOSPITAL,General Acute Care Hospital,282N00000X,1111 AMSTERDAM AVE,NEW YORK,NY,10025,2122563398,40.8054067,-73.96133069999999
691efe51a095716360cd1a69,ced1c412-84fd-4340-b223-08dd72708cc3,1356754824,ST LUKES HOSPITAL,Rehabilitation Hospital,283X00000X,1111 AMSTERDAM AVE,NEW YORK,NY,10025,2122563398,40.8054067,-73.96133069999999
691efe51a095716360cd1a6a,0e8c6100-6909-408e-bb1e-82049e8c0b21,1245643584,"NEW YORK UNIVERSITY, COLLEGE OF DENTISTRY",General Acute Care Hospital,282N00000X,345 E 24TH ST 9W,NEW YORK,NY,10010,2129989435,40.7379433,-73.9782142
691efe51a095716360cd1a6b,d9f110bc-f075-40f6-92d4-760dda36cc7f,1740693530,BELLEVUE HOSPITAL CENTER,General Acute Care Hospital,282N00000X,462 1ST AVE,NEW YORK,NY,10016,2125626501,40.7388717,-73.9752894
691efe51a095716360cd1a6c,2d78eb51-4e52-4dcf-be9e-7a5797341eff,1649684127,MOUNT SINAI,Chronic Disease Hospital,281P00000X,230 W 17TH ST 8TH FLOOR,NEW YORK,NY,10011,2126041970,40.7409512,-73.999838
691efe51a095716360cd1a6d,876136da-5124-404e-b879-f62ac20bfe72,1043625692,NEW YORK PRESBYTERIAN HOSPITAL,General Acute Care Hospital,282N00000X,630 W 168TH ST MILSTEIN HOSPITAL RM. 8016,NEW YORK,NY,10032,2123053280,40.8408953,-73.9409419
691efe51a095716360cd1a6e,3a6d5877-24cf-4edb-a2a2-b8b0e560ca06,1285041160,NEW YORK PRESBYTERIAN HOSPITAL,Children's Hospital,282NC2000X,106 W 96TH ST APT 2B,NEW YORK,NY,10025,9785057425,40.7929313,-73.968379
691efe51a095716360cd1a6f,12ed2beb-2538-4f83-9e64-02eb2bd71368,1114334000,NORWALK HOSPITAL,Psychiatric Hospital,283Q00000X,61 W 85TH ST APARTMENT 2B,NEW YORK,NY,10024,2032471123,40.785647,-73.9716171
691efe51a095716360cd1a70,53466c05-165b-4c06-bf4e-f0810d7e8675,1245647650,HEALTH AND HOSPITAL CORPORATION,General Acute Care Hospital,282N00000X,1901 1ST AVE,NEW YORK,NY,10029,2124236262,40.7852328,-73.94502899999999
691efe51a095716360cd1a71,93c4adb0-ee07-4bfc-b2f9-18960d2e9512,1467869420,LENOX HILL HOSPITAL,Special Hospital,284300000X,100 E 77TH ST,NEW YORK,NY,10075,2124342000,40.7737506,-73.96082410000001
691efe51a095716360cd1a72,e4098690-1713-48ea-99e8-177085f39ca6,1093123762,NYU LANGONE MEDICAL CENTER,General Acute Care Hospital,282N00000X,440 E 20TH ST UNIT MA,NEW YORK,NY,10009,3473660518,40.733947,-73.9783733
691efe51a095716360cd1a73,3c0ac7e7-f98f-46bb-98cf-fd3631da7349,1841608452,RACHEL AKIN,General Acute Care Hospital,282N00000X,424 W 51ST ST #2,NEW YORK,NY,10019,8585252045,40.7644644,-73.9897632
691efe51a095716360cd1a74,614928b0-b72d-419b-8830-1b2d48dce69f,1013316215,COLUMBIA NEW YORK PRESBYTERIAN,Women's Hospital,282NW0100X,627 W 165TH ST SUITE 515E,NEW YORK,NY,10032,2123050230,40.8400001,-73.9420025
691efe51a095716360cd1a75,ed903dd5-8a4d-4f7f-be01-b387ac36b55a,1487056792,"JOHN L. BOLLING, M.D.",Psychiatric Hospital,283Q00000X,203 W 138TH ST,NEW YORK,NY,10030,2122819939,40.817626,-73.942674
691efe51a095716360cd1a76,80dc8e93-7f03-4852-a7c0-c1491359bed6,1588067813,MOUNT SINAI BETH ISRAEL,General Acute Care Hospital,282N00000X,317 E 17TH ST STE 2F05,NEW YORK,NY,10003,2124202885,40.7341759,-73.982687
691efe51a095716360cd1a77,958567c3-d75a-4d79-bf40-c9eb46e771de,1760880405,HOSPITAL FOR SPECIAL SURGERY,Special Hospital,284300000X,535 E 70TH ST,NEW YORK,NY,10021,2126061000,40.765048,-73.9529124
691efe51a095716360cd1a78,885c9320-4179-4244-934a-f6b9e47a8760,1679962849,ASPCA,General Acute Care Hospital,282N00000X,424 E 92ND ST,NEW YORK,NY,10128,2128767700,40.78008519999999,-73.9456544
691efe51a095716360cd1a79,48cc8e16-8b31-4bad-a74b-db1dac79ae18,1871982231,PROFITNESS PHYSICAL THERAPY,General Acute Care Hospital,282N00000X,171 E 84TH ST 2ND FLOOR,NEW YORK,NY,10028,2123270600,40.7779008,-73.9552911
691efe51a095716360cd1a7a,f09a87db-4340-4408-986e-49d5d678673b,1780076794,COLUMBIA MEDICAL CENTER,General Acute Care Hospital,282N00000X,"622 W 168TH ST PH 8 EAST, ROOM 101",NEW YORK,NY,10032,2123059818,40.841311,-73.94067
691efe51a095716360cd1a7b,4d7ad080-bf7e-462e-a5e7-29e9b192c1a0,1194112458,MOUNT SINAI HOSPITAL,General Acute Care Hospital,282N00000X,1 GUSTAV L LEVY PL,NEW YORK,NY,10029,2126596864,40.7901411,-73.95381929999999
691efe51a095716360cd1a7c,4b28f9e2-5726-4a3a-af29-4c256f888fd8,1578950838,COLUMBIA UNIVERSITY MEDICAL CENTER - NEW YORK PRESBYTERIAN HOSPITAL,Psychiatric Hospital Unit,273R00000X,635 W 165TH ST FL 6,NEW YORK,NY,10032,2123056001,40.8404214,-73.9424763
691efe51a095716360cd1a7d,84e816de-0f00-4d43-b2ff-8998bd550dbc,1982081170,COLUMBIA UNIVERSITY MEDICAL CENTER,Psychiatric Hospital Unit,273R00000X,635 W 165TH ST FLOOR 6,NEW YORK,NY,10032,2123054562,40.8404214,-73.9424763
691efe51a095716360cd1a7e,d0a9e066-f869-4edf-821f-46ff51772714,1720466469,MEMORIAL SLOAN KETTERING CANCER CENTER,General Acute Care Hospital,282N00000X,1275 YORK AVE,NEW YORK,NY,10065,2126396930,40.7644262,-73.9569173
691efe51a095716360cd1a7f,94f585fd-cb7e-4543-8055-b16273732d51,1871972844,NEW YORK METHODIST,General Acute Care Hospital,282N00000X,100 2ND AVE APT. 2A,NEW YORK,NY,10003,6095568345,40.7270657,-73.98824979999999
691efe51a095716360cd1a80,15450355-af23-4497-8a5e-6ca1e7242acc,1013396720,NYU,General Acute Care Hospital,282N00000X,240 E 38TH ST,NEW YORK,NY,10016,2122636110,40.7473709,-73.9750627
691efe51a095716360cd1a81,fe9935d3-0eb3-4297-9aa3-6f14650db8f8,1063894822,NEW YORK PRESBYTERIAN HOSPITAL,Critical Access Hospital,282NC0060X,5141 BROADWAY,NEW YORK,NY,10034,2129324000,40.8733663,-73.9131104
691efe51a095716360cd1a82,aac5e494-215e-44ed-8b18-49f9c9773343,1053794230,MEMORIAL SLOAN KETTERING CANCER CENTER,Special Hospital,284300000X,1233 YORK AVE SUITE 11-O,NEW YORK,NY,10065,4163157095,40.7634988,-73.9567548
691efe51a095716360cd1a83,ecbceb15-a372-454b-8f84-ea3aebeb0586,1306220454,COLUMBIA PRESBYTERIAN HOSPITAL,General Acute Care Hospital,282N00000X,627 W 165TH ST SUITE 515,NEW YORK,NY,10032,2123050230,40.8400001,-73.9420025
691efe51a095716360cd1a84,a96ab8ec-e340-4c05-8bad-c719a0ff2e1c,1821474644,NYU LANGONE MEDICAL CENTER,General Acute Care Hospital,282N00000X,530 1ST AVENUE 7J,NEW YORK,NY,10016,2122638313,40.7414221,-73.9744296
691efe51a095716360cd1a85,4b20c20d-49ee-4263-a77f-63ebea01c15a,1811368368,THE ST. LUKES ROOSEVELT HOSPITAL CENTER,Substance Use Disorder Rehabilitation Hospital Unit,276400000X,440 W 114TH ST,NEW YORK,NY,10025,2122563296,40.8052033,-73.9615058
691efe51a095716360cd1a86,d7d9743c-4d3c-4e99-8614-851cc62b970d,1457725673,MOUNT SINAI HOSPITAL,General Acute Care Hospital,282N00000X,10 AMSTERDAM AVE APT 805,NEW YORK,NY,10023,9175800177,40.7708733,-73.9875364
691efe51a095716360cd1a87,e2ff241f-9887-4f0a-b89f-eb3b042c0ef6,1912362237,LENOX HILL HOSPITAL,General Acute Care Hospital,282N00000X,100 EAST 77TH. STREET,NEW YORK,NY,10075,2124342842,40.7737506,-73.96082410000001
691efe51a095716360cd1a88,8c630d00-ae45-4b7e-b2f1-f5f7d344d41e,1134585953,MOUNT SINAI BETH ISRAEL,General Acute Care Hospital,282N00000X,10 NATHAN D PERLMAN PL 3S21B,NEW YORK,NY,10003,2124203969,40.7330104,-73.98318379999999
691efe51a095716360cd1a89,8aa86169-967d-45fd-9e6a-d07f70c7e2d0,1871959353,ROCKEFELLER UNIVERSITY,Special Hospital,284300000X,1230 YORK AVE,NEW YORK,NY,10065,2123277581,40.76190039999999,-73.95707920000001
691efe51a095716360cd1a8a,56694a6c-1ac0-4d85-b521-c8aa522bb1a0,1730548280,NEUROPATHOLOGY ASSOCIATES PLLC,Special Hospital,284300000X,545 W 45TH ST 7TH FLOOR,NEW YORK,NY,10036,8006050664,40.76255,-73.995733
691efe51a095716360cd1a8b,8d01f6cf-7675-48fb-b9e3-54198b425f96,1598126518,MOUNT SINAI ST LUKES,General Acute Care Hospital,282N00000X,440 W 114TH ST,NEW YORK,NY,10025,2125234000,40.8052033,-73.9615058
691efe51a095716360cd1a8c,a59d4a7d-5ca4-40db-82f3-3ee966ce00b7,1427411966,"STUDENT, HEALTH CARE",General Acute Care Hospital,282N00000X,178 E 7TH ST APT 3B,NEW YORK,NY,10009,9522400760,40.7250765,-73.9816951
691efe51a095716360cd1a8d,e2646073-e059-4ff3-8515-aed267b07dcb,1518314400,NYU-HOSPITAL FOR JOINT DISEASES,General Acute Care Hospital,282N00000X,301 E 17TH ST,NEW YORK,NY,10003,2125986713,40.7343532,-73.9829855
691efe51a095716360cd1a8e,e9297d0d-436a-42fb-93e3-77b119ef3052,1619325677,NEW YORK PRESBYTERIAN HOSPITAL-MORGAN STANLEY CHILDREN'S HOSPITAL,Children's Hospital,282NC2000X,3959 BROADWAY,NEW YORK,NY,10032,7186971384,40.8398048,-73.9414011
691efe51a095716360cd1a8f,2d813008-e6a3-4252-b4fe-1ee501727e8e,1013365733,MEMORIAL SLOAN KETTERING CANCER CENTER,Special Hospital,284300000X,1275 YORK AVE,NEW YORK,NY,10065,2126392000,40.7644262,-73.9569173
691efe51a095716360cd1a90,1c38a990-2d17-4634-b86c-2cb54d6f05db,1164871349,GREEN KEY RESOURCES,Rehabilitation Hospital,283X00000X,475 PARK AVE S FLOOR 7,NEW YORK,NY,10016,2125846445,40.7454061,-73.9822562
691efe51a095716360cd1a91,e260cdeb-3667-4b88-b584-483a53091194,1962851832,MEMORIAL SLOAN KETTERING CANCER CENTER,Special Hospital,284300000X,1275 YORK AVE,NEW YORK,NY,10065,2126398803,40.7644262,-73.9569173
691efe51a095716360cd1a92,2cb74f2c-fefb-4008-ba82-b1fe9727d045,1861842304,NYU LANGONE MEDICAL CENTER,General Acute Care Hospital,282N00000X,660 1ST AVE 5TH FLOOR,NEW YORK,NY,10016,2122638990,40.7460052,-73.9715222
691efe51a095716360cd1a93,1d0c71b9-41d0-4274-806c-8e61629bca45,1215387543,NYU MEDICAL CENTER,Special Hospital,284300000X,550 1ST AVE,NEW YORK,NY,10016,2122635506,40.7420165,-73.9736533
691efe51a095716360cd1a94,9ecf2d0a-8ec7-4b92-b939-b19604c128c4,1346691003,PHELPS MEMORIAL HOSPITAL,General Acute Care Hospital,282N00000X,400 SAINT NICHOLAS AVE APT.7M,NEW YORK,NY,10027,7863372852,40.8131855,-73.9500253
691efe51a095716360cd1a95,2df0c809-b63b-4cea-b040-3f47aa35e22e,1659723401,HARLEM,General Acute Care Hospital,282N00000X,506 LENOX AVE BLDG 14-106,NEW YORK,NY,10037,2129392291,40.8146069,-73.9392886
691efe51a095716360cd1a96,70279a1f-fc44-4747-b2be-602c38c7c747,1780138974,NYULANGONEMEDICALCENTER,Children's Hospital,282NC2000X,462 1ST AVE NBV-8S3,NEW YORK,NY,10016,2122637822,40.7388717,-73.9752894
691efe51a095716360cd1a97,b5fef2a2-e9a4-451b-a5f5-70a268b3faaf,1740734557,JACOBI MEDICAL CENTER,Long Term Care Hospital,282E00000X,2265 5TH AVE APT 1B,NEW YORK,NY,10037,6463185627,40.8140738,-73.9364287
691efe51a095716360cd1a98,f015cfe8-8345-4890-80b1-7d9964ffab4a,1649727728,NYU LANGONE MEDICAL CENTER,General Acute Care Hospital,282N00000X,"317E 34TH ST., PEDIATRIC NEUROSURGERY, 10TH FLOOR",NEW YORK,NY,10016,7185011787,40.7447606,-73.9748783
691efe51a095716360cd1a99,e01ac890-7e34-4394-bead-14772306d7a6,1427509322,NEW YORK PRESBYTERIAN HOSPITAL- MORGAN STANLEY CHILDREN'S HOSPITAL,Children's Hospital,282NC2000X,3959 BROADWAY,NEW YORK,NY,10032,2123428630,40.8398048,-73.9414011
691efe51a095716360cd1a9a,b3ded8aa-e433-4dd6-878e-e5a199fae5c4,1528519014,THE MOUNT SINAI HOSPITAL,General Acute Care Hospital,282N00000X,1468 MADISON AVE,NEW YORK,NY,10029,2122416500,40.7902728,-73.9521681
691efe51a095716360cd1a9b,3b344149-cbd4-4a4a-a797-ab318371ccf7,1427595594,NYU LANGONE MEDICAL CENTER,General Acute Care Hospital,282N00000X,240 E 38TH ST 23RD FLOOR,NEW YORK,NY,10016,2122633095,40.7473709,-73.9750627
691efe51a095716360cd1a9c,ee9ea3ed-4935-4d73-9d21-42cda29c7989,1558808469,VETS CARE,Rehabilitation Hospital,283X00000X,2698 8TH AVE,NEW YORK,NY,10030,2122830653,40.8217392,-73.9423648
691efe51a095716360cd1a9d,72fe342b-5223-47b4-9910-6bfcad1c21f2,1760923965,NEW YORK PRESBYTERIAN- COLUMBIA UNIVERSITY MEDICAL CENTER,General Acute Care Hospital,282N00000X,622 W 168TH ST,NEW YORK,NY,10032,2123056144,40.8410959,-73.9405652
691efe51a095716360cd1a9e,ab93eada-4b82-4c0f-a53d-18050b7f0541,1851822951,MEMORIAL SLOAN KETTERING CANCER CENTER,Special Hospital,284300000X,415 CENTRAL PARK W #5BL,NEW YORK,NY,10025,9172251701,40.7951238,-73.9623684
691efe51a095716360cd1a9f,1cd81506-1589-4614-a17f-57245aef55ba,1306377767,AVENTURA HOSPITAL AND MEDICAL CENTER,General Acute Care Hospital,282N00000X,1138 1ST AVE APT 3N,NEW YORK,NY,10065,8109317115,40.7617312,-73.9601057
691efe51a095716360cd1aa0,8fcbc687-d5fe-4338-ab17-ecb027e0a0a8,1336673813,NYU LANGONE MEDICAL CENTER,General Acute Care Hospital,282N00000X,550 1ST AVE,NEW YORK,NY,10016,2122635506,40.7420165,-73.9736533
691efe51a095716360cd1aa1,dc066667-1fd0-4bca-9387-bac374e95d14,1821522079,CONEY ISLAND HOSPITAL,General Acute Care Hospital,282N00000X,150 E 39TH ST APT 509,NEW YORK,NY,10016,6465742618,40.7489783,-73.97653319999999
691efe51a095716360cd1aa2,efed7e3b-c123-42d4-8b46-235674fda8ff,1700315538,NEW YORK GENERAL MEDICAL SERVICES PC,Hospitalist Physician,208M00000X,1060 AMSTERDAM AVE,NEW YORK,NY,10025,8656931000,40.8045213,-73.9630394
691efe51a095716360cd1aa3,a2ddd338-5d38-4548-9607-513fb59ed421,1770046351,RALPH LAUREN CENTER FOR CANCER CARE AND PREVENTION,Special Hospital,284300000X,1919 MADISON AVE FRNT 2,NEW YORK,NY,10035,2129871777,40.8045686,-73.9410797
691efe51a095716360cd1aa4,226fed61-b67e-494a-ae9b-ca80848a402f,1235764622,NEW YORK CITY HEALTH AND HOSPITALS CORPORATION,General Acute Care Hospital,282N00000X,1901 1ST AVE,NEW YORK,NY,10029,7722212423,40.7852328,-73.94502899999999
691efe51a095716360cd1aa5,d49a60c7-3585-430d-9a45-a48c3fe4770d,1073241196,BETH ISAEL MEDICAL CENTER,General Acute Care Hospital,282N00000X,310 EAST 14TH STREET,NEW YORK,NY,10003,6466056201,40.7319493,-73.9845869
691efe51a095716360cd1aa6,ee9abde3-50e9-4e42-a702-f4262b8b69a3,1578240479,COLUMBIA SCHOOL OF NURSING,Critical Access Hospital,282NC0060X,560 W 168TH ST,NEW YORK,NY,10032,2123054318,40.8404083,-73.93887529999999
691efe51a095716360cd1aa7,1d81c17a-9f2f-4d4d-9c0f-64cc8881f67f,1619745601,ST LUKES ROOSEVELT HOSPITAL CENTER,General Acute Care Hospital,282N00000X,1111 AMSTERDAM AVE,NEW YORK,NY,10025,6466056201,40.8054067,-73.96133069999999
691efe51a095716360cd1aa8,30e8b894-d8af-49de-b64d-4b8771a59b99,1235978370,NEW YORK CITY HEALTH AND HOSPITALS CORPORATION,General Acute Care Hospital,282N00000X,50 WATER ST FL 6 CUBICLE G5,NEW YORK,NY,10004,3473084042,40.7037027,-74.0099832
691efe51a095716360cd1aa9,666aa610-555a-4a97-84b9-c4f16cec0514,1104620772,ROYAL THAI HEALTH SYSTEM LLC,General Acute Care Hospital,282N00000X,525 E 68TH ST,NEW YORK,NY,10065,6468338062,40.7648658,-73.9539836
